{
"type": "FeatureCollection",
"name": "countries",
"crs": { "type": "name", "properties": { "name": "urn:ogc:def:crs:OGC:1.3:CRS84" } },
"features": [
{ "type": "Feature", "properties": { "name": "Vatican" }, "geometry": { "type": "Polygon", "coordinates": [ [ [ 12.430566, 41.897559 ], [ 12.427539, 41.900732 ], [ 12.430566, 41.905469 ], [ 12.438379, 41.906201 ], [ 12.43916, 41.898389 ], [ 12.430566, 41.897559 ] ] ] } },
{ "type": "Feature", "properties": { "name": "Jersey" }, "geometry": { "type": "Polygon", "coordinates": [ [ [ -2.009912, 49.180811 ], [ -2.05376, 49.169824 ], [ -2.091016, 49.187402 ], [ -2.165674, 49.187402 ], [ -2.23584, 49.176367 ], [ -2.220508, 49.266357 ], [ -2.082227, 49.255371 ], [ -2.018652, 49.23125 ], [ -2.009912, 49.180811 ] ] ] } },
{ "type": "Feature", "properties": { "name": "Guernsey" }, "geometry": { "type": "Polygon", "coordinates": [ [ [ -2.547363, 49.428711 ], [ -2.639014, 49.450928 ], [ -2.646143, 49.468213 ], [ -2.542187, 49.506592 ], [ -2.520898, 49.506299 ], [ -2.512305, 49.494531 ], [ -2.547363, 49.428711 ] ] ] } },
{ "type": "Feature", "properties": { "name": "United Kingdom" }, "geometry": { "type": "MultiPolygon", "coordinates": [ [ [ [ -2.742139, 51.581104 ], [ -2.978516, 51.538867 ], [ -3.080371, 51.495801 ], [ -3.258789, 51.398486 ], [ -3.293115, 51.39043 ], [ -3.562354, 51.413818 ], [ -3.762695, 51.539941 ], [ -3.890771, 51.59165 ], [ -3.943652, 51.59751 ], [ -3.99834, 51.582129 ], [ -4.115283, 51.566406 ], [ -4.23457, 51.569092 ], [ -4.173682, 51.627344 ], [ -4.091016, 51.659912 ], [ -4.276172, 51.68252 ], [ -4.327637, 51.700244 ], [ -4.386279, 51.741064 ], [ -4.531494, 51.748047 ], [ -4.600781, 51.737646 ], [ -4.717627, 51.683691 ], [ -4.902295, 51.62627 ], [ -5.124756, 51.705859 ], [ -5.168359, 51.740723 ], [ -5.167236, 51.808057 ], [ -5.200586, 51.861377 ], [ -5.262305, 51.880176 ], [ -5.18335, 51.949658 ], [ -5.088086, 51.995898 ], [ -4.878516, 52.041846 ], [ -4.561133, 52.150879 ], [ -4.383154, 52.197314 ], [ -4.217725, 52.277441 ], [ -4.149365, 52.32627 ], [ -4.099756, 52.393115 ], [ -4.050537, 52.475146 ], [ -3.980322, 52.541748 ], [ -4.048437, 52.557617 ], [ -4.078906, 52.607861 ], [ -4.070703, 52.658838 ], [ -4.039258, 52.704053 ], [ -4.067432, 52.760742 ], [ -4.117529, 52.82002 ], [ -4.114746, 52.866162 ], [ -4.101465, 52.915479 ], [ -4.22915, 52.912842 ], [ -4.356445, 52.897412 ], [ -4.471826, 52.862451 ], [ -4.583691, 52.814941 ], [ -4.683057, 52.806152 ], [ -4.681445, 52.844141 ], [ -4.63833, 52.891113 ], [ -4.525684, 52.958203 ], [ -4.435043543612334, 53.0 ], [ 0.165153743733641, 53.0 ], [ 0.124414, 52.971582 ], [ 0.045898, 52.905615 ], [ 0.279785, 52.808691 ], [ 0.330176, 52.811621 ], [ 0.381934, 52.825195 ], [ 0.431641, 52.858154 ], [ 0.515527, 52.938379 ], [ 0.558789, 52.966943 ], [ 0.704492, 52.977246 ], [ 0.826758, 52.971094 ], [ 0.948535, 52.953369 ], [ 1.055566, 52.958984 ], [ 1.271289, 52.924561 ], [ 1.382129, 52.893506 ], [ 1.656738, 52.753711 ], [ 1.716113, 52.677246 ], [ 1.743359, 52.578516 ], [ 1.746582, 52.468994 ], [ 1.700391, 52.368896 ], [ 1.647363, 52.278516 ], [ 1.614648, 52.161816 ], [ 1.591406, 52.119775 ], [ 1.558984, 52.086865 ], [ 1.413477, 51.994775 ], [ 1.316797, 51.956934 ], [ 1.275977, 51.973535 ], [ 1.232422, 51.97124 ], [ 1.227832, 51.949121 ], [ 1.273828, 51.9021 ], [ 1.274414, 51.845361 ], [ 1.188477, 51.803369 ], [ 1.101172, 51.785449 ], [ 0.955078, 51.807812 ], [ 0.752246, 51.72959 ], [ 0.898047, 51.689404 ], [ 0.927441, 51.646631 ], [ 0.890918, 51.571436 ], [ 0.799219, 51.537891 ], [ 0.697559, 51.523047 ], [ 0.593457, 51.519482 ], [ 0.507227, 51.501074 ], [ 0.424512, 51.465625 ], [ 0.52832, 51.484473 ], [ 0.600293, 51.467969 ], [ 0.645508, 51.404687 ], [ 0.686523, 51.386572 ], [ 0.889355, 51.359521 ], [ 1.014941, 51.359717 ], [ 1.257129, 51.375098 ], [ 1.373438, 51.374707 ], [ 1.414941, 51.363281 ], [ 1.415625, 51.31084 ], [ 1.397559, 51.182031 ], [ 1.365527, 51.155469 ], [ 1.044434, 51.047266 ], [ 0.978613, 50.97168 ], [ 0.960156, 50.925879 ], [ 0.772363, 50.933984 ], [ 0.684375, 50.885547 ], [ 0.532324, 50.853418 ], [ 0.414746, 50.819189 ], [ 0.299707, 50.775977 ], [ 0.205078, 50.763037 ], [ -0.203906, 50.814355 ], [ -0.450781, 50.810156 ], [ -0.785254, 50.76543 ], [ -0.871387, 50.772803 ], [ -1.000586, 50.815625 ], [ -1.132861, 50.84458 ], [ -1.285059, 50.857324 ], [ -1.416455, 50.896875 ], [ -1.334473, 50.820801 ], [ -1.516748, 50.747461 ], [ -1.60083, 50.732861 ], [ -1.687891, 50.735156 ], [ -1.866016, 50.715234 ], [ -2.031055, 50.725391 ], [ -2.00625, 50.673242 ], [ -1.962061, 50.627783 ], [ -1.9979, 50.608008 ], [ -2.03584, 50.603076 ], [ -2.350146, 50.637402 ], [ -2.394678, 50.630908 ], [ -2.433447, 50.599219 ], [ -2.547754, 50.616309 ], [ -2.658838, 50.669727 ], [ -2.776953, 50.705566 ], [ -2.900879, 50.722412 ], [ -2.999414, 50.716602 ], [ -3.40459, 50.632422 ], [ -3.485449, 50.547949 ], [ -3.525879, 50.428174 ], [ -3.584375, 50.321826 ], [ -3.679785, 50.239941 ], [ -3.793359, 50.229248 ], [ -3.900195, 50.285937 ], [ -4.103418, 50.348535 ], [ -4.172559, 50.39082 ], [ -4.19458, 50.393311 ], [ -4.217285, 50.378174 ], [ -4.296973, 50.359082 ], [ -4.379492, 50.358203 ], [ -4.506689, 50.341357 ], [ -4.727979, 50.290479 ], [ -4.817383, 50.255957 ], [ -5.009521, 50.160742 ], [ -5.048633, 50.134375 ], [ -5.118506, 50.03833 ], [ -5.225244, 50.021387 ], [ -5.322852, 50.082959 ], [ -5.433984, 50.104443 ], [ -5.551221, 50.083398 ], [ -5.622119, 50.050684 ], [ -5.655176, 50.077246 ], [ -5.65625, 50.131885 ], [ -5.570654, 50.196973 ], [ -5.342285, 50.246143 ], [ -5.141797, 50.37373 ], [ -5.043457, 50.451514 ], [ -5.004443, 50.495264 ], [ -4.956396, 50.523145 ], [ -4.893555, 50.533691 ], [ -4.861279, 50.582031 ], [ -4.58291, 50.776367 ], [ -4.559961, 50.820947 ], [ -4.546094, 50.900684 ], [ -4.523096, 50.977441 ], [ -4.296484, 51.027148 ], [ -4.188184, 51.188525 ], [ -4.158398, 51.201318 ], [ -3.842334, 51.230908 ], [ -3.60791, 51.228564 ], [ -3.375098, 51.196973 ], [ -3.255762, 51.194141 ], [ -3.135986, 51.205029 ], [ -3.042041, 51.248584 ], [ -2.88125, 51.405664 ], [ -2.79082, 51.474805 ], [ -2.687207, 51.537256 ], [ -2.590283, 51.608594 ], [ -2.433057, 51.740723 ], [ -2.539355, 51.695215 ], [ -2.667676, 51.622998 ], [ -2.742139, 51.581104 ] ] ], [ [ [ -1.149365, 50.655713 ], [ -1.17583, 50.615234 ], [ -1.196094, 50.599219 ], [ -1.251465, 50.588818 ], [ -1.306299, 50.588525 ], [ -1.515332, 50.669775 ], [ -1.563428, 50.666113 ], [ -1.515674, 50.70332 ], [ -1.38584, 50.733545 ], [ -1.312793, 50.773486 ], [ -1.144238, 50.734717 ], [ -1.065576, 50.690234 ], [ -1.149365, 50.655713 ] ] ] ] } },
{ "type": "Feature", "properties": { "name": "Tunisia" }, "geometry": { "type": "MultiPolygon", "coordinates": [ [ [ [ 11.502441, 33.155566 ], [ 11.473553086313428, 33.0 ], [ 8.154842430671861, 33.0 ], [ 8.1125, 33.055322 ], [ 8.075586, 33.089062 ], [ 7.877246, 33.172119 ], [ 7.762695, 33.233105 ], [ 7.731348, 33.268506 ], [ 7.70918, 33.362305 ], [ 7.627539, 33.548633 ], [ 7.534375, 33.71792 ], [ 7.500195, 33.832471 ], [ 7.495605, 33.976514 ], [ 7.513867, 34.080518 ], [ 7.554492, 34.125 ], [ 7.748535, 34.254492 ], [ 7.838281, 34.410303 ], [ 7.949414, 34.468701 ], [ 8.045605, 34.512695 ], [ 8.123438, 34.563916 ], [ 8.192773, 34.646289 ], [ 8.245605, 34.734082 ], [ 8.254688, 34.828955 ], [ 8.276855, 34.979492 ], [ 8.312109, 35.084619 ], [ 8.394238, 35.203857 ], [ 8.359863, 35.299609 ], [ 8.316406, 35.403125 ], [ 8.329004, 35.582227 ], [ 8.318066, 35.654932 ], [ 8.28291, 35.719287 ], [ 8.24707, 35.801807 ], [ 8.245703, 35.870557 ], [ 8.280273, 36.050977 ], [ 8.306738, 36.18877 ], [ 8.34873, 36.367969 ], [ 8.333984, 36.418164 ], [ 8.302734, 36.455615 ], [ 8.208789, 36.495117 ], [ 8.207617, 36.518945 ], [ 8.230762, 36.545264 ], [ 8.369629, 36.63252 ], [ 8.444238, 36.760742 ], [ 8.506738, 36.7875 ], [ 8.60127, 36.833936 ], [ 8.597656, 36.883887 ], [ 8.576563, 36.937207 ], [ 8.823535, 36.997607 ], [ 9.058887, 37.155859 ], [ 9.141992, 37.194629 ], [ 9.687988, 37.340381 ], [ 9.758887, 37.330273 ], [ 9.838477, 37.308984 ], [ 9.815527, 37.254639 ], [ 9.783984, 37.211426 ], [ 9.830273, 37.135352 ], [ 9.896387, 37.181641 ], [ 9.879395, 37.212842 ], [ 9.875586, 37.25415 ], [ 9.988086, 37.257764 ], [ 10.087402, 37.25127 ], [ 10.196387, 37.205859 ], [ 10.18877, 37.033887 ], [ 10.334082, 36.865381 ], [ 10.293262, 36.781494 ], [ 10.412305, 36.731836 ], [ 10.518164, 36.791357 ], [ 10.571289, 36.879443 ], [ 10.766211, 36.930273 ], [ 10.951367, 37.059277 ], [ 11.053906, 37.07251 ], [ 11.077051, 36.966699 ], [ 11.12666, 36.874072 ], [ 11.056543, 36.841455 ], [ 10.967188, 36.743018 ], [ 10.798145, 36.493115 ], [ 10.642383, 36.419629 ], [ 10.525684, 36.32334 ], [ 10.487988, 36.254883 ], [ 10.476562, 36.175146 ], [ 10.505762, 36.032422 ], [ 10.59082, 35.887256 ], [ 10.688965, 35.799512 ], [ 10.783691, 35.77207 ], [ 11.004297, 35.633838 ], [ 11.000684, 35.551611 ], [ 11.031543, 35.453857 ], [ 11.043262, 35.335107 ], [ 11.120117, 35.240283 ], [ 10.955859, 35.033643 ], [ 10.866211, 34.884326 ], [ 10.690918, 34.678467 ], [ 10.534863, 34.544727 ], [ 10.200391, 34.346045 ], [ 10.118359, 34.280078 ], [ 10.064844, 34.211621 ], [ 10.040039, 34.140332 ], [ 10.049023, 34.056299 ], [ 10.158984, 33.850049 ], [ 10.305273, 33.728271 ], [ 10.454297, 33.6625 ], [ 10.713184, 33.689014 ], [ 10.704297, 33.609668 ], [ 10.722754, 33.514404 ], [ 10.828125, 33.518896 ], [ 10.898438, 33.533691 ], [ 10.958008, 33.626318 ], [ 11.08457, 33.562891 ], [ 11.150293, 33.369238 ], [ 11.257422, 33.308838 ], [ 11.269922, 33.286328 ], [ 11.232129, 33.271582 ], [ 11.202637, 33.249219 ], [ 11.234277, 33.233594 ], [ 11.338086, 33.209473 ], [ 11.400586, 33.224902 ], [ 11.50459, 33.181934 ], [ 11.502441, 33.155566 ] ] ], [ [ [ 11.123633, 34.681689 ], [ 11.153027, 34.74458 ], [ 11.254883, 34.820312 ], [ 11.281055, 34.802197 ], [ 11.278027, 34.753809 ], [ 11.123633, 34.681689 ] ] ], [ [ [ 10.931348, 33.717432 ], [ 10.883008, 33.690186 ], [ 10.857422, 33.687158 ], [ 10.784766, 33.717676 ], [ 10.757031, 33.71748 ], [ 10.72207, 33.738916 ], [ 10.733887, 33.855615 ], [ 10.745215, 33.888672 ], [ 10.921973, 33.893115 ], [ 11.017871, 33.82334 ], [ 11.033594, 33.805029 ], [ 11.037598, 33.785059 ], [ 10.993066, 33.745947 ], [ 10.957617, 33.72207 ], [ 10.931348, 33.717432 ] ] ] ] } },
{ "type": "Feature", "properties": { "name": "Switzerland" }, "geometry": { "type": "Polygon", "coordinates": [ [ [ 9.554395, 47.511133 ], [ 9.625879, 47.467041 ], [ 9.609082, 47.391797 ], [ 9.527539, 47.270752 ], [ 9.484277, 47.172656 ], [ 9.479492, 47.09751 ], [ 9.487695, 47.062256 ], [ 9.502344, 47.062744 ], [ 9.580273, 47.057373 ], [ 9.619922, 47.057471 ], [ 9.74502, 47.037109 ], [ 9.845313, 47.007373 ], [ 9.864648, 46.975977 ], [ 9.877734, 46.937695 ], [ 9.996875, 46.885352 ], [ 10.133496, 46.851514 ], [ 10.179785, 46.862354 ], [ 10.349414, 46.984766 ], [ 10.414941, 46.964404 ], [ 10.45459, 46.899414 ], [ 10.452832, 46.864941 ], [ 10.406055, 46.734863 ], [ 10.397949, 46.665039 ], [ 10.438281, 46.618848 ], [ 10.44248, 46.582861 ], [ 10.430664, 46.550049 ], [ 10.363086, 46.54707 ], [ 10.272266, 46.564844 ], [ 10.195508, 46.621094 ], [ 10.1375, 46.614355 ], [ 10.087012, 46.599902 ], [ 10.06123, 46.546777 ], [ 10.038281, 46.483203 ], [ 10.045605, 46.4479 ], [ 10.081934, 46.420752 ], [ 10.109668, 46.362842 ], [ 10.129883, 46.287988 ], [ 10.145215, 46.253516 ], [ 10.12832, 46.238232 ], [ 10.080566, 46.227979 ], [ 10.041016, 46.238086 ], [ 9.97168, 46.327686 ], [ 9.939258, 46.361816 ], [ 9.884473, 46.367773 ], [ 9.787793, 46.346045 ], [ 9.639453, 46.295898 ], [ 9.57959, 46.296094 ], [ 9.528711, 46.306201 ], [ 9.481055, 46.348779 ], [ 9.440625, 46.430811 ], [ 9.427637, 46.482324 ], [ 9.399316, 46.480664 ], [ 9.304395, 46.495557 ], [ 9.260156, 46.475195 ], [ 9.259766, 46.39126 ], [ 9.251074, 46.286768 ], [ 9.203418, 46.219238 ], [ 9.070996, 46.102441 ], [ 9.022363, 46.051465 ], [ 9.003027, 46.014893 ], [ 8.998926, 45.983105 ], [ 9.019141, 45.928125 ], [ 9.04668, 45.875586 ], [ 9.02373, 45.845703 ], [ 8.953711, 45.830029 ], [ 8.904297, 45.861963 ], [ 8.885156, 45.918701 ], [ 8.778027, 45.996191 ], [ 8.826758, 46.061035 ], [ 8.818555, 46.077148 ], [ 8.641699, 46.110791 ], [ 8.56543, 46.159814 ], [ 8.458398, 46.245898 ], [ 8.438477, 46.282861 ], [ 8.442969, 46.402783 ], [ 8.436816, 46.431885 ], [ 8.422559, 46.446045 ], [ 8.370703, 46.445117 ], [ 8.298535, 46.403418 ], [ 8.231934, 46.341211 ], [ 8.095703, 46.271045 ], [ 8.081543, 46.256006 ], [ 8.127246, 46.187598 ], [ 8.125195, 46.160937 ], [ 8.014258, 46.051904 ], [ 7.993164, 46.015918 ], [ 7.852344, 45.947461 ], [ 7.787891, 45.921826 ], [ 7.592578, 45.972217 ], [ 7.538574, 45.978174 ], [ 7.451563, 45.944434 ], [ 7.32793, 45.912354 ], [ 7.129004, 45.88042 ], [ 7.055762, 45.903809 ], [ 7.021094, 45.925781 ], [ 7.003906, 45.958838 ], [ 6.953711, 46.017139 ], [ 6.897266, 46.051758 ], [ 6.858008, 46.089404 ], [ 6.805664, 46.130664 ], [ 6.77207, 46.165137 ], [ 6.816797, 46.275195 ], [ 6.78418, 46.313965 ], [ 6.767383, 46.369189 ], [ 6.776074, 46.406641 ], [ 6.758105, 46.415771 ], [ 6.578223, 46.437354 ], [ 6.428906, 46.430518 ], [ 6.321875, 46.393701 ], [ 6.234668, 46.332617 ], [ 6.224219, 46.319434 ], [ 6.22959, 46.308447 ], [ 6.272949, 46.252246 ], [ 6.199414, 46.193066 ], [ 6.086621, 46.147021 ], [ 6.006641, 46.142334 ], [ 5.971484, 46.151221 ], [ 5.97002, 46.214697 ], [ 6.036133, 46.238086 ], [ 6.095898, 46.279395 ], [ 6.115918, 46.337646 ], [ 6.123242, 46.378613 ], [ 6.060254, 46.428174 ], [ 6.067969, 46.458545 ], [ 6.107031, 46.516064 ], [ 6.129688, 46.566992 ], [ 6.160742, 46.611035 ], [ 6.285156, 46.683057 ], [ 6.410156, 46.75542 ], [ 6.429004, 46.832275 ], [ 6.438574, 46.925879 ], [ 6.45625, 46.94834 ], [ 6.624805, 47.004346 ], [ 6.666895, 47.026514 ], [ 6.688086, 47.058252 ], [ 6.820703, 47.163184 ], [ 6.952051, 47.267187 ], [ 6.978516, 47.302051 ], [ 7.000586, 47.32251 ], [ 7.000586, 47.339453 ], [ 6.984082, 47.352539 ], [ 6.921484, 47.36123 ], [ 6.900391, 47.394238 ], [ 6.968359, 47.453223 ], [ 7.053418, 47.489355 ], [ 7.136035, 47.489844 ], [ 7.169238, 47.473242 ], [ 7.16748, 47.453711 ], [ 7.203125, 47.432715 ], [ 7.265723, 47.425781 ], [ 7.343164, 47.433105 ], [ 7.42002, 47.455176 ], [ 7.467383, 47.507666 ], [ 7.494922, 47.547363 ], [ 7.615625, 47.592725 ], [ 7.698047, 47.569873 ], [ 7.927051, 47.563867 ], [ 8.09375, 47.576172 ], [ 8.198242, 47.606934 ], [ 8.327832, 47.606934 ], [ 8.414746, 47.5896 ], [ 8.430078, 47.592139 ], [ 8.454004, 47.596191 ], [ 8.477637, 47.612695 ], [ 8.559473, 47.624023 ], [ 8.570508, 47.637793 ], [ 8.56709, 47.651904 ], [ 8.552344, 47.659131 ], [ 8.451758, 47.651807 ], [ 8.413281, 47.662695 ], [ 8.403418, 47.687793 ], [ 8.435742, 47.731348 ], [ 8.509863, 47.766895 ], [ 8.572656, 47.775635 ], [ 8.617871, 47.766113 ], [ 8.72832, 47.700049 ], [ 8.754785, 47.698047 ], [ 8.770117, 47.709912 ], [ 8.793066, 47.716553 ], [ 8.831152, 47.703613 ], [ 8.874023, 47.662695 ], [ 8.881152, 47.656396 ], [ 9.127539, 47.670703 ], [ 9.182813, 47.670703 ], [ 9.35, 47.598926 ], [ 9.524023, 47.524219 ], [ 9.554395, 47.511133 ] ] ] } },
{ "type": "Feature", "properties": { "name": "Spain" }, "geometry": { "type": "MultiPolygon", "coordinates": [ [ [ [ 1.571191, 38.658838 ], [ 1.50498, 38.670996 ], [ 1.405762, 38.670996 ], [ 1.401953, 38.711426 ], [ 1.417188, 38.739648 ], [ 1.436328, 38.768213 ], [ 1.496875, 38.711914 ], [ 1.592676, 38.701465 ], [ 1.593945, 38.67207 ], [ 1.571191, 38.658838 ] ] ], [ [ [ 3.241113, 39.756689 ], [ 3.342188, 39.786719 ], [ 3.395898, 39.777295 ], [ 3.448926, 39.76123 ], [ 3.461816, 39.697754 ], [ 3.414648, 39.627148 ], [ 3.34873, 39.555664 ], [ 3.292969, 39.477051 ], [ 3.244727, 39.386621 ], [ 3.15459, 39.333252 ], [ 3.072852, 39.30127 ], [ 2.900098, 39.368359 ], [ 2.799805, 39.385059 ], [ 2.769824, 39.410254 ], [ 2.745996, 39.510254 ], [ 2.700586, 39.542139 ], [ 2.634082, 39.556201 ], [ 2.575879, 39.530664 ], [ 2.499512, 39.477881 ], [ 2.458789, 39.530469 ], [ 2.394336, 39.540381 ], [ 2.37002, 39.57207 ], [ 2.371289, 39.613086 ], [ 2.784961, 39.854834 ], [ 2.904785, 39.908301 ], [ 3.158691, 39.970508 ], [ 3.197559, 39.961084 ], [ 3.164453, 39.924219 ], [ 3.166992, 39.907715 ], [ 3.198633, 39.889844 ], [ 3.190918, 39.861377 ], [ 3.158691, 39.836572 ], [ 3.145313, 39.790088 ], [ 3.241113, 39.756689 ] ] ], [ [ [ 4.275293, 39.830273 ], [ 3.967676, 39.94585 ], [ 3.867188, 39.95874 ], [ 3.842676, 39.976367 ], [ 3.84541, 40.036475 ], [ 3.853418, 40.063037 ], [ 4.05918, 40.075098 ], [ 4.225781, 40.032373 ], [ 4.315137, 39.917236 ], [ 4.32207, 39.89751 ], [ 4.293652, 39.841846 ], [ 4.275293, 39.830273 ] ] ], [ [ [ 1.408984, 38.857275 ], [ 1.256934, 38.879004 ], [ 1.22334, 38.903857 ], [ 1.25625, 38.973389 ], [ 1.299805, 38.981738 ], [ 1.302539, 39.031152 ], [ 1.348633, 39.080811 ], [ 1.564453, 39.121045 ], [ 1.613184, 39.087402 ], [ 1.623633, 39.038818 ], [ 1.494531, 38.93252 ], [ 1.445215, 38.918701 ], [ 1.408984, 38.857275 ] ] ], [ [ [ -1.792725, 43.372559 ], [ -1.753271, 43.324707 ], [ -1.712842, 43.307031 ], [ -1.627148, 43.282471 ], [ -1.561475, 43.279199 ], [ -1.471729, 43.267676 ], [ -1.410693, 43.240088 ], [ -1.407324, 43.197119 ], [ -1.422607, 43.149121 ], [ -1.459424, 43.10498 ], [ -1.480469, 43.071143 ], [ -1.46084, 43.051758 ], [ -1.42876, 43.036768 ], [ -1.394043, 43.032617 ], [ -1.370508, 43.037598 ], [ -1.352734, 43.064258 ], [ -1.318848, 43.096973 ], [ -1.300049, 43.100977 ], [ -1.301562, 43.082471 ], [ -1.285449, 43.059619 ], [ -1.175439, 43.021143 ], [ -0.933838, 42.949512 ], [ -0.839209, 42.948193 ], [ -0.762646, 42.939795 ], [ -0.740186, 42.909521 ], [ -0.586426, 42.798975 ], [ -0.549805, 42.802002 ], [ -0.481152, 42.799316 ], [ -0.398438, 42.808105 ], [ -0.338574, 42.828809 ], [ -0.299316, 42.825342 ], [ -0.256055, 42.803955 ], [ -0.205322, 42.785303 ], [ -0.140039, 42.748926 ], [ -0.081494, 42.703857 ], [ -0.041162, 42.689111 ], [ 0.201367, 42.719336 ], [ 0.255469, 42.69292 ], [ 0.312891, 42.693262 ], [ 0.377246, 42.700146 ], [ 0.517676, 42.686279 ], [ 0.631641, 42.6896 ], [ 0.641992, 42.700635 ], [ 0.651758, 42.800439 ], [ 0.669824, 42.835742 ], [ 0.696875, 42.845117 ], [ 0.764453, 42.838037 ], [ 1.010059, 42.778955 ], [ 1.111133, 42.742041 ], [ 1.208301, 42.713135 ], [ 1.293262, 42.709961 ], [ 1.349414, 42.690674 ], [ 1.42832, 42.595898 ], [ 1.414844, 42.548389 ], [ 1.421973, 42.530811 ], [ 1.430273, 42.497852 ], [ 1.428125, 42.461328 ], [ 1.448828, 42.437451 ], [ 1.48623, 42.434473 ], [ 1.534082, 42.441699 ], [ 1.586426, 42.455957 ], [ 1.678516, 42.49668 ], [ 1.706055, 42.50332 ], [ 1.859766, 42.45708 ], [ 1.92793, 42.426318 ], [ 1.951465, 42.392773 ], [ 1.986523, 42.358496 ], [ 2.032715, 42.353516 ], [ 2.09834, 42.386084 ], [ 2.200391, 42.420947 ], [ 2.374414, 42.390283 ], [ 2.567969, 42.345801 ], [ 2.65166, 42.340479 ], [ 2.654785, 42.362109 ], [ 2.67002, 42.393018 ], [ 2.701855, 42.408496 ], [ 2.749414, 42.413037 ], [ 2.815625, 42.429248 ], [ 2.891406, 42.456055 ], [ 2.97002, 42.467236 ], [ 3.052637, 42.447217 ], [ 3.152148, 42.431006 ], [ 3.211426, 42.431152 ], [ 3.239844, 42.367871 ], [ 3.287891, 42.343701 ], [ 3.306738, 42.288965 ], [ 3.218652, 42.260352 ], [ 3.166406, 42.256494 ], [ 3.150391, 42.162451 ], [ 3.175195, 42.135986 ], [ 3.224609, 42.111133 ], [ 3.238086, 42.082227 ], [ 3.248047, 41.944238 ], [ 3.146875, 41.861035 ], [ 3.004883, 41.767432 ], [ 2.310938, 41.466504 ], [ 2.145605, 41.320752 ], [ 2.082617, 41.287402 ], [ 1.566602, 41.195605 ], [ 1.205859, 41.097559 ], [ 1.03291, 41.062061 ], [ 0.816895, 40.891602 ], [ 0.714648, 40.822852 ], [ 0.796094, 40.803809 ], [ 0.891113, 40.722363 ], [ 0.85918, 40.68623 ], [ 0.720605, 40.630469 ], [ 0.660059, 40.61333 ], [ 0.627148, 40.622217 ], [ 0.596094, 40.614502 ], [ 0.363672, 40.319043 ], [ 0.158398, 40.106592 ], [ 0.043066, 40.013965 ], [ -0.075146, 39.875928 ], [ -0.327002, 39.519873 ], [ -0.328955, 39.41709 ], [ -0.204932, 39.062598 ], [ -0.133789, 38.969482 ], [ -0.034131, 38.891211 ], [ 0.154883, 38.824658 ], [ 0.201563, 38.75918 ], [ 0.136328, 38.696777 ], [ -0.052734, 38.585693 ], [ -0.38125, 38.435645 ], [ -0.520801, 38.317285 ], [ -0.550684, 38.203125 ], [ -0.646777, 38.151855 ], [ -0.683203, 37.992041 ], [ -0.741553, 37.886133 ], [ -0.752734, 37.850244 ], [ -0.814648, 37.769922 ], [ -0.823096, 37.711621 ], [ -0.721582, 37.631055 ], [ -0.771875, 37.59624 ], [ -0.822168, 37.580762 ], [ -0.938086, 37.571338 ], [ -1.327539, 37.561133 ], [ -1.640967, 37.386963 ], [ -1.797607, 37.232861 ], [ -1.939307, 36.94585 ], [ -2.111523, 36.77666 ], [ -2.187695, 36.745459 ], [ -2.305566, 36.819824 ], [ -2.452832, 36.831152 ], [ -2.595703, 36.806494 ], [ -2.670605, 36.747559 ], [ -2.787549, 36.714746 ], [ -2.901855, 36.743164 ], [ -3.14917, 36.758496 ], [ -3.259131, 36.755762 ], [ -3.43125, 36.70791 ], [ -3.578809, 36.739844 ], [ -3.827783, 36.756055 ], [ -4.366846, 36.718115 ], [ -4.434863, 36.700244 ], [ -4.502246, 36.62915 ], [ -4.674121, 36.506445 ], [ -4.935303, 36.502051 ], [ -5.171484, 36.423779 ], [ -5.230518, 36.373633 ], [ -5.329687, 36.235742 ], [ -5.360937, 36.134912 ], [ -5.381592, 36.134082 ], [ -5.407227, 36.158887 ], [ -5.443604, 36.150586 ], [ -5.4625, 36.073779 ], [ -5.55127, 36.038818 ], [ -5.625488, 36.025928 ], [ -5.808398, 36.08833 ], [ -5.960693, 36.181738 ], [ -6.040674, 36.188428 ], [ -6.170459, 36.333789 ], [ -6.22627, 36.426465 ], [ -6.265918, 36.526514 ], [ -6.257715, 36.564844 ], [ -6.268945, 36.596729 ], [ -6.384131, 36.637012 ], [ -6.412256, 36.728857 ], [ -6.32832, 36.848145 ], [ -6.259424, 36.898975 ], [ -6.216797, 36.913574 ], [ -6.320947, 36.908496 ], [ -6.396191, 36.831641 ], [ -6.492432, 36.954639 ], [ -6.884619, 37.194238 ], [ -6.859375, 37.24917 ], [ -6.86377, 37.278906 ], [ -6.929492, 37.214941 ], [ -6.974658, 37.198437 ], [ -7.174951, 37.208789 ], [ -7.406152, 37.179443 ], [ -7.467187, 37.428027 ], [ -7.496045, 37.523584 ], [ -7.503516, 37.585498 ], [ -7.443945, 37.728271 ], [ -7.378906, 37.786377 ], [ -7.292236, 37.906445 ], [ -7.185449, 38.006348 ], [ -7.07251, 38.030029 ], [ -7.022852, 38.044727 ], [ -6.981104, 38.121973 ], [ -6.957568, 38.187891 ], [ -6.974805, 38.194434 ], [ -7.106396, 38.181006 ], [ -7.343018, 38.457422 ], [ -7.335791, 38.501465 ], [ -7.305957, 38.566846 ], [ -7.286377, 38.649365 ], [ -7.281543, 38.714551 ], [ -7.219922, 38.770508 ], [ -7.125488, 38.826953 ], [ -7.046045, 38.907031 ], [ -7.00625, 38.985254 ], [ -6.997949, 39.056445 ], [ -7.042969, 39.10708 ], [ -7.172412, 39.135205 ], [ -7.305762, 39.338135 ], [ -7.335449, 39.465137 ], [ -7.362695, 39.47832 ], [ -7.445117, 39.536182 ], [ -7.524219, 39.644727 ], [ -7.535693, 39.661572 ], [ -7.454102, 39.680664 ], [ -7.117676, 39.681689 ], [ -7.047412, 39.705566 ], [ -7.036719, 39.713965 ], [ -6.975391, 39.798389 ], [ -6.911182, 39.937109 ], [ -6.896094, 40.021826 ], [ -6.916406, 40.056836 ], [ -7.027832, 40.142627 ], [ -7.032617, 40.16792 ], [ -7.014697, 40.20835 ], [ -6.948437, 40.251611 ], [ -6.858887, 40.300732 ], [ -6.810156, 40.343115 ], [ -6.821777, 40.37627 ], [ -6.847949, 40.410986 ], [ -6.852051, 40.443262 ], [ -6.835693, 40.483154 ], [ -6.829834, 40.619092 ], [ -6.818359, 40.654053 ], [ -6.835889, 40.77749 ], [ -6.857715, 40.87832 ], [ -6.928467, 41.009131 ], [ -6.915527, 41.038037 ], [ -6.882812, 41.062402 ], [ -6.775781, 41.107715 ], [ -6.690137, 41.214502 ], [ -6.565918, 41.303711 ], [ -6.403125, 41.375391 ], [ -6.289355, 41.455029 ], [ -6.244336, 41.515918 ], [ -6.2125, 41.532031 ], [ -6.22168, 41.560449 ], [ -6.243115, 41.601807 ], [ -6.308057, 41.642187 ], [ -6.391699, 41.665381 ], [ -6.484668, 41.664404 ], [ -6.542187, 41.67251 ], [ -6.558984, 41.704053 ], [ -6.552588, 41.789551 ], [ -6.55752, 41.874121 ], [ -6.575342, 41.913086 ], [ -6.618262, 41.942383 ], [ -6.703613, 41.93457 ], [ -6.777295, 41.958496 ], [ -6.833203, 41.96416 ], [ -6.865527, 41.945264 ], [ -7.030469, 41.950635 ], [ -7.099121, 41.964209 ], [ -7.147119, 41.981152 ], [ -7.17793, 41.97168 ], [ -7.195361, 41.955225 ], [ -7.19834, 41.929395 ], [ -7.209619, 41.895264 ], [ -7.268555, 41.864404 ], [ -7.403613, 41.833691 ], [ -7.512598, 41.835986 ], [ -7.612598, 41.857959 ], [ -7.644678, 41.873975 ], [ -7.693066, 41.888477 ], [ -7.896387, 41.870557 ], [ -7.92085, 41.883643 ], [ -7.990967, 41.851904 ], [ -8.094434, 41.814209 ], [ -8.15249, 41.811963 ], [ -8.173535, 41.819971 ], [ -8.18125, 41.836963 ], [ -8.224756, 41.89585 ], [ -8.21333, 41.9271 ], [ -8.12998, 42.018164 ], [ -8.139307, 42.039941 ], [ -8.173584, 42.069385 ], [ -8.204199, 42.111865 ], [ -8.213086, 42.133691 ], [ -8.266064, 42.137402 ], [ -8.322559, 42.115088 ], [ -8.538086, 42.069336 ], [ -8.589648, 42.052734 ], [ -8.682959, 42.008496 ], [ -8.777148, 41.941064 ], [ -8.852344, 41.926904 ], [ -8.87832, 41.946875 ], [ -8.887207, 42.105273 ], [ -8.772461, 42.210596 ], [ -8.690918, 42.27417 ], [ -8.729199, 42.287012 ], [ -8.81582, 42.285254 ], [ -8.809961, 42.334473 ], [ -8.769385, 42.358154 ], [ -8.730029, 42.411719 ], [ -8.776172, 42.434814 ], [ -8.812109, 42.470068 ], [ -8.809912, 42.562354 ], [ -8.799902, 42.599902 ], [ -8.811523, 42.640332 ], [ -8.987793, 42.585645 ], [ -9.033105, 42.593848 ], [ -9.035059, 42.662354 ], [ -8.937207, 42.766699 ], [ -8.927197, 42.798584 ], [ -9.041602, 42.814014 ], [ -9.127197, 42.865234 ], [ -9.179443, 42.910986 ], [ -9.235205, 42.976904 ], [ -9.235645, 43.035791 ], [ -9.178076, 43.174023 ], [ -9.095557, 43.214209 ], [ -9.024512, 43.238965 ], [ -8.873682, 43.334424 ], [ -8.665625, 43.316602 ], [ -8.537061, 43.337061 ], [ -8.421582, 43.38584 ], [ -8.355469, 43.396826 ], [ -8.248926, 43.439404 ], [ -8.252295, 43.496924 ], [ -8.288867, 43.5396 ], [ -8.256738, 43.579883 ], [ -8.137158, 43.629053 ], [ -8.004687, 43.694385 ], [ -7.852734, 43.706982 ], [ -7.698145, 43.764551 ], [ -7.59458, 43.727344 ], [ -7.503613, 43.739941 ], [ -7.399316, 43.695801 ], [ -7.261963, 43.594629 ], [ -7.060986, 43.553955 ], [ -6.900684, 43.585645 ], [ -6.617285, 43.592383 ], [ -6.475684, 43.578906 ], [ -6.224121, 43.603857 ], [ -6.080127, 43.594922 ], [ -5.84668, 43.645068 ], [ -5.66582, 43.582471 ], [ -5.315723, 43.553174 ], [ -5.105273, 43.501855 ], [ -4.523047, 43.415723 ], [ -4.312793, 43.414746 ], [ -4.015332, 43.463086 ], [ -3.889355, 43.499414 ], [ -3.774023, 43.477881 ], [ -3.604639, 43.519482 ], [ -3.523633, 43.511035 ], [ -3.417871, 43.451709 ], [ -3.045605, 43.371582 ], [ -2.947705, 43.439697 ], [ -2.875049, 43.454443 ], [ -2.60708, 43.412744 ], [ -2.337109, 43.328027 ], [ -2.19668, 43.321924 ], [ -1.991309, 43.345068 ], [ -1.828516, 43.40083 ], [ -1.794043, 43.407324 ], [ -1.792725, 43.372559 ] ] ] ] } },
{ "type": "Feature", "properties": { "name": "Slovenia" }, "geometry": { "type": "Polygon", "coordinates": [ [ [ 13.992773, 45.509424 ], [ 13.970313, 45.503369 ], [ 13.970117, 45.482617 ], [ 13.935645, 45.449805 ], [ 13.878711, 45.428369 ], [ 13.615234, 45.476758 ], [ 13.57793, 45.516895 ], [ 13.637305, 45.535937 ], [ 13.719824, 45.587598 ], [ 13.775977, 45.581982 ], [ 13.844727, 45.592871 ], [ 13.874707, 45.614844 ], [ 13.831152, 45.68042 ], [ 13.72168, 45.761279 ], [ 13.663477, 45.791992 ], [ 13.583398, 45.812354 ], [ 13.569629, 45.834131 ], [ 13.613965, 45.96167 ], [ 13.600586, 45.979785 ], [ 13.50918, 45.973779 ], [ 13.487695, 45.987109 ], [ 13.480273, 46.009229 ], [ 13.486426, 46.039551 ], [ 13.548047, 46.089111 ], [ 13.616602, 46.133105 ], [ 13.634961, 46.157764 ], [ 13.63252, 46.177051 ], [ 13.544727, 46.196582 ], [ 13.491797, 46.216602 ], [ 13.449805, 46.223535 ], [ 13.420996, 46.212305 ], [ 13.399609, 46.224951 ], [ 13.378223, 46.261621 ], [ 13.399512, 46.317529 ], [ 13.478516, 46.369189 ], [ 13.563281, 46.415088 ], [ 13.637109, 46.448535 ], [ 13.679688, 46.462891 ], [ 13.7, 46.520264 ], [ 13.743945, 46.514307 ], [ 13.831348, 46.51123 ], [ 13.928809, 46.498193 ], [ 14.0, 46.485639334893193 ], [ 14.0, 45.506963015413803 ], [ 13.992773, 45.509424 ] ] ] } },
{ "type": "Feature", "properties": { "name": "San Marino" }, "geometry": { "type": "Polygon", "coordinates": [ [ [ 12.426367, 43.894092 ], [ 12.396875, 43.93457 ], [ 12.441113, 43.982422 ], [ 12.503711, 43.989746 ], [ 12.514648, 43.952979 ], [ 12.485254, 43.901416 ], [ 12.426367, 43.894092 ] ] ] } },
{ "type": "Feature", "properties": { "name": "Portugal" }, "geometry": { "type": "Polygon", "coordinates": [ [ [ -8.682959, 42.008496 ], [ -8.589648, 42.052734 ], [ -8.538086, 42.069336 ], [ -8.322559, 42.115088 ], [ -8.266064, 42.137402 ], [ -8.213086, 42.133691 ], [ -8.204199, 42.111865 ], [ -8.173584, 42.069385 ], [ -8.139307, 42.039941 ], [ -8.12998, 42.018164 ], [ -8.21333, 41.9271 ], [ -8.224756, 41.89585 ], [ -8.18125, 41.836963 ], [ -8.173535, 41.819971 ], [ -8.15249, 41.811963 ], [ -8.094434, 41.814209 ], [ -7.990967, 41.851904 ], [ -7.92085, 41.883643 ], [ -7.896387, 41.870557 ], [ -7.693066, 41.888477 ], [ -7.644678, 41.873975 ], [ -7.612598, 41.857959 ], [ -7.512598, 41.835986 ], [ -7.403613, 41.833691 ], [ -7.268555, 41.864404 ], [ -7.209619, 41.895264 ], [ -7.19834, 41.929395 ], [ -7.195361, 41.955225 ], [ -7.17793, 41.97168 ], [ -7.147119, 41.981152 ], [ -7.099121, 41.964209 ], [ -7.030469, 41.950635 ], [ -6.865527, 41.945264 ], [ -6.833203, 41.96416 ], [ -6.777295, 41.958496 ], [ -6.703613, 41.93457 ], [ -6.618262, 41.942383 ], [ -6.575342, 41.913086 ], [ -6.55752, 41.874121 ], [ -6.552588, 41.789551 ], [ -6.558984, 41.704053 ], [ -6.542187, 41.67251 ], [ -6.484668, 41.664404 ], [ -6.391699, 41.665381 ], [ -6.308057, 41.642187 ], [ -6.243115, 41.601807 ], [ -6.22168, 41.560449 ], [ -6.2125, 41.532031 ], [ -6.244336, 41.515918 ], [ -6.289355, 41.455029 ], [ -6.403125, 41.375391 ], [ -6.565918, 41.303711 ], [ -6.690137, 41.214502 ], [ -6.775781, 41.107715 ], [ -6.882812, 41.062402 ], [ -6.915527, 41.038037 ], [ -6.928467, 41.009131 ], [ -6.857715, 40.87832 ], [ -6.835889, 40.77749 ], [ -6.818359, 40.654053 ], [ -6.829834, 40.619092 ], [ -6.835693, 40.483154 ], [ -6.852051, 40.443262 ], [ -6.847949, 40.410986 ], [ -6.821777, 40.37627 ], [ -6.810156, 40.343115 ], [ -6.858887, 40.300732 ], [ -6.948437, 40.251611 ], [ -7.014697, 40.20835 ], [ -7.032617, 40.16792 ], [ -7.027832, 40.142627 ], [ -6.916406, 40.056836 ], [ -6.896094, 40.021826 ], [ -6.911182, 39.937109 ], [ -6.975391, 39.798389 ], [ -7.036719, 39.713965 ], [ -7.047412, 39.705566 ], [ -7.117676, 39.681689 ], [ -7.454102, 39.680664 ], [ -7.535693, 39.661572 ], [ -7.524219, 39.644727 ], [ -7.445117, 39.536182 ], [ -7.362695, 39.47832 ], [ -7.335449, 39.465137 ], [ -7.305762, 39.338135 ], [ -7.172412, 39.135205 ], [ -7.042969, 39.10708 ], [ -6.997949, 39.056445 ], [ -7.00625, 38.985254 ], [ -7.046045, 38.907031 ], [ -7.125488, 38.826953 ], [ -7.219922, 38.770508 ], [ -7.281543, 38.714551 ], [ -7.286377, 38.649365 ], [ -7.305957, 38.566846 ], [ -7.335791, 38.501465 ], [ -7.343018, 38.457422 ], [ -7.106396, 38.181006 ], [ -6.974805, 38.194434 ], [ -6.957568, 38.187891 ], [ -6.981104, 38.121973 ], [ -7.022852, 38.044727 ], [ -7.07251, 38.030029 ], [ -7.185449, 38.006348 ], [ -7.292236, 37.906445 ], [ -7.378906, 37.786377 ], [ -7.443945, 37.728271 ], [ -7.503516, 37.585498 ], [ -7.496045, 37.523584 ], [ -7.467187, 37.428027 ], [ -7.406152, 37.179443 ], [ -7.493604, 37.168311 ], [ -7.834131, 37.005713 ], [ -7.939697, 37.00542 ], [ -8.136768, 37.077051 ], [ -8.484326, 37.100049 ], [ -8.597656, 37.121338 ], [ -8.739111, 37.074609 ], [ -8.848437, 37.075684 ], [ -8.935352, 37.016016 ], [ -8.997803, 37.032275 ], [ -8.92627, 37.166064 ], [ -8.81416, 37.430811 ], [ -8.818555, 37.592432 ], [ -8.791846, 37.732812 ], [ -8.822656, 37.871875 ], [ -8.878955, 37.958691 ], [ -8.802246, 38.183838 ], [ -8.810937, 38.299756 ], [ -8.881104, 38.44668 ], [ -8.668311, 38.424316 ], [ -8.733984, 38.482422 ], [ -8.798877, 38.518164 ], [ -8.861621, 38.509961 ], [ -8.914795, 38.512109 ], [ -9.095996, 38.455225 ], [ -9.186719, 38.438184 ], [ -9.213281, 38.448096 ], [ -9.203369, 38.538965 ], [ -9.250391, 38.656738 ], [ -9.177832, 38.687793 ], [ -9.093311, 38.69668 ], [ -9.021484, 38.746875 ], [ -8.977051, 38.80293 ], [ -9.000488, 38.903027 ], [ -8.938086, 38.998096 ], [ -8.791602, 39.078174 ], [ -8.86748, 39.065967 ], [ -8.954297, 39.016064 ], [ -9.091016, 38.834668 ], [ -9.135791, 38.742773 ], [ -9.252295, 38.712793 ], [ -9.356738, 38.6979 ], [ -9.410205, 38.70752 ], [ -9.474121, 38.730859 ], [ -9.479736, 38.798779 ], [ -9.474756, 38.85293 ], [ -9.431445, 38.960449 ], [ -9.414355, 39.112109 ], [ -9.352832, 39.248145 ], [ -9.357227, 39.284277 ], [ -9.374756, 39.338281 ], [ -9.319629, 39.391113 ], [ -9.251416, 39.426025 ], [ -9.148291, 39.542578 ], [ -9.004053, 39.820557 ], [ -8.837842, 40.115674 ], [ -8.851318, 40.151807 ], [ -8.886621, 40.179443 ], [ -8.872656, 40.259082 ], [ -8.772412, 40.605664 ], [ -8.731592, 40.650928 ], [ -8.684619, 40.752539 ], [ -8.673975, 40.916504 ], [ -8.655566, 41.029492 ], [ -8.659814, 41.086279 ], [ -8.674609, 41.154492 ], [ -8.738379, 41.284668 ], [ -8.805664, 41.56001 ], [ -8.81084, 41.651953 ], [ -8.75542, 41.698389 ], [ -8.846387, 41.705176 ], [ -8.887598, 41.7646 ], [ -8.878223, 41.83208 ], [ -8.777148, 41.941064 ], [ -8.682959, 42.008496 ] ] ] } },
{ "type": "Feature", "properties": { "name": "Netherlands" }, "geometry": { "type": "MultiPolygon", "coordinates": [ [ [ [ 5.892461, 50.752557 ], [ 5.797363, 50.754541 ], [ 5.74707, 50.75957 ], [ 5.693652, 50.774658 ], [ 5.693555, 50.774756 ], [ 5.669141, 50.805957 ], [ 5.639453, 50.843604 ], [ 5.647559, 50.86665 ], [ 5.736621, 50.932129 ], [ 5.75, 50.950244 ], [ 5.74082, 50.959912 ], [ 5.749805, 50.98877 ], [ 5.818262, 51.086426 ], [ 5.827148, 51.125635 ], [ 5.796484, 51.153076 ], [ 5.752344, 51.169482 ], [ 5.608789, 51.198437 ], [ 5.54043, 51.239307 ], [ 5.508789, 51.275 ], [ 5.476855, 51.285059 ], [ 5.429785, 51.272998 ], [ 5.31084, 51.259717 ], [ 5.21416, 51.278955 ], [ 5.099902, 51.346484 ], [ 5.073438, 51.406836 ], [ 5.059473, 51.453125 ], [ 5.030957, 51.469092 ], [ 4.992578, 51.445361 ], [ 4.943945, 51.407764 ], [ 4.848047, 51.403271 ], [ 4.820703, 51.412061 ], [ 4.816016, 51.432812 ], [ 4.810547, 51.452734 ], [ 4.78418, 51.477393 ], [ 4.755664, 51.491113 ], [ 4.633984, 51.421729 ], [ 4.58877, 51.421924 ], [ 4.531641, 51.448584 ], [ 4.503418, 51.474707 ], [ 4.440918, 51.459814 ], [ 4.384766, 51.427588 ], [ 4.404004, 51.36709 ], [ 4.37373, 51.356006 ], [ 4.304492, 51.361523 ], [ 4.226172, 51.386475 ], [ 4.138867, 51.401514 ], [ 4.006543, 51.443213 ], [ 3.821875, 51.409375 ], [ 3.693555, 51.449902 ], [ 3.586914, 51.453906 ], [ 3.520508, 51.486182 ], [ 3.448926, 51.540771 ], [ 3.499609, 51.57666 ], [ 3.548633, 51.589111 ], [ 3.743945, 51.596045 ], [ 3.886035, 51.574219 ], [ 4.141309, 51.455762 ], [ 4.205762, 51.456689 ], [ 4.274121, 51.471631 ], [ 4.239355, 51.503906 ], [ 4.175488, 51.519287 ], [ 4.080469, 51.551123 ], [ 4.004785, 51.59585 ], [ 4.182617, 51.610303 ], [ 4.158008, 51.633447 ], [ 4.13457, 51.6729 ], [ 3.946875, 51.810547 ], [ 3.978906, 51.847803 ], [ 4.026074, 51.927734 ], [ 4.084863, 51.994092 ], [ 4.131738, 52.011914 ], [ 4.208789, 52.058984 ], [ 4.37627, 52.196826 ], [ 4.482813, 52.30918 ], [ 4.562109, 52.442578 ], [ 4.67832, 52.809766 ], [ 4.712695, 52.872119 ], [ 4.76875, 52.941309 ], [ 4.839063, 52.928271 ], [ 4.887988, 52.90835 ], [ 5.06123, 52.960645 ], [ 5.147324911181623, 53.0 ], [ 7.1899384624364, 53.0 ], [ 7.189941, 52.999512 ], [ 7.179492, 52.966211 ], [ 7.11709, 52.887012 ], [ 7.050879, 52.744775 ], [ 7.033008, 52.651367 ], [ 7.013184, 52.633545 ], [ 6.748438, 52.634082 ], [ 6.710742, 52.617871 ], [ 6.705371, 52.597656 ], [ 6.71875, 52.573584 ], [ 6.712402, 52.549658 ], [ 6.691602, 52.530176 ], [ 6.70293, 52.499219 ], [ 6.748828, 52.464014 ], [ 6.83252, 52.442285 ], [ 6.92207, 52.440283 ], [ 6.968164, 52.444092 ], [ 7.001855, 52.418994 ], [ 7.035156, 52.380225 ], [ 7.032617, 52.331494 ], [ 7.019629, 52.266016 ], [ 6.977246, 52.205518 ], [ 6.855078, 52.135791 ], [ 6.800391, 52.11123 ], [ 6.749023, 52.098682 ], [ 6.724512, 52.080225 ], [ 6.712988, 52.056885 ], [ 6.715625, 52.036182 ], [ 6.802441, 51.980176 ], [ 6.800391, 51.967383 ], [ 6.775195, 51.938281 ], [ 6.741797, 51.910889 ], [ 6.517578, 51.853955 ], [ 6.425, 51.858398 ], [ 6.372168, 51.830029 ], [ 6.355664, 51.824658 ], [ 6.29707, 51.850732 ], [ 6.166504, 51.880762 ], [ 6.117188, 51.87041 ], [ 6.089844, 51.853955 ], [ 6.007617, 51.833984 ], [ 5.94873, 51.802686 ], [ 5.948535, 51.762402 ], [ 6.052734, 51.658252 ], [ 6.089355, 51.637793 ], [ 6.091113, 51.598926 ], [ 6.141602, 51.550098 ], [ 6.193262, 51.488916 ], [ 6.198828, 51.45 ], [ 6.192871, 51.410596 ], [ 6.166211, 51.354834 ], [ 6.075879, 51.224121 ], [ 6.074805, 51.199023 ], [ 6.082422, 51.17998 ], [ 6.113379, 51.174707 ], [ 6.136914, 51.164844 ], [ 6.12998, 51.147412 ], [ 5.961035, 51.056689 ], [ 5.939258, 51.04082 ], [ 5.868359, 51.045312 ], [ 5.85752, 51.030127 ], [ 5.867188, 51.005664 ], [ 5.894727, 50.984229 ], [ 5.955078, 50.972949 ], [ 6.006836, 50.949951 ], [ 6.048438, 50.904883 ], [ 5.993945, 50.750439 ], [ 5.892461, 50.752557 ] ] ], [ [ [ 4.211426, 51.34873 ], [ 4.172559, 51.30708 ], [ 4.040039, 51.24707 ], [ 3.902051, 51.207666 ], [ 3.830762, 51.212598 ], [ 3.781934, 51.233203 ], [ 3.755664, 51.254834 ], [ 3.681836, 51.275684 ], [ 3.580273, 51.286182 ], [ 3.51709, 51.263623 ], [ 3.471973, 51.242236 ], [ 3.43252, 51.245752 ], [ 3.402832, 51.263623 ], [ 3.380078, 51.291113 ], [ 3.350098, 51.377686 ], [ 3.425781, 51.393506 ], [ 3.589453, 51.399414 ], [ 3.716504, 51.369141 ], [ 3.883398, 51.354492 ], [ 4.011035, 51.395947 ], [ 4.111523, 51.360645 ], [ 4.226172, 51.386475 ], [ 4.211426, 51.34873 ] ] ], [ [ [ 4.787109, 52.999805 ], [ 4.786515353662234, 53.0 ], [ 4.787381358599675, 53.0 ], [ 4.787109, 52.999805 ] ] ], [ [ [ 4.046777, 51.684912 ], [ 4.067578, 51.66748 ], [ 4.075098, 51.648779 ], [ 3.950977, 51.627051 ], [ 3.819043, 51.693994 ], [ 3.731836, 51.678223 ], [ 3.699023, 51.709912 ], [ 3.698535, 51.729687 ], [ 3.789062, 51.746436 ], [ 3.949121, 51.739453 ], [ 4.046777, 51.684912 ] ] ] ] } },
{ "type": "Feature", "properties": { "name": "Morocco" }, "geometry": { "type": "Polygon", "coordinates": [ [ [ -2.190771, 35.029785 ], [ -2.131787, 34.97085 ], [ -1.920898, 34.835547 ], [ -1.795605, 34.751904 ], [ -1.792187, 34.723193 ], [ -1.832422, 34.654639 ], [ -1.849658, 34.607324 ], [ -1.816602, 34.55708 ], [ -1.739453, 34.496094 ], [ -1.733301, 34.467041 ], [ -1.751855, 34.433252 ], [ -1.791797, 34.36792 ], [ -1.706934, 34.176074 ], [ -1.692676, 33.990283 ], [ -1.714697, 33.858203 ], [ -1.714111, 33.781836 ], [ -1.702979, 33.716846 ], [ -1.63125, 33.566748 ], [ -1.679199, 33.318652 ], [ -1.625098, 33.18335 ], [ -1.550732, 33.073584 ], [ -1.535439662541402, 33.0 ], [ -8.76466937517201, 33.0 ], [ -8.596289, 33.187158 ], [ -8.512842, 33.252441 ], [ -8.301172, 33.374365 ], [ -7.562354, 33.640283 ], [ -7.144678, 33.830322 ], [ -6.900977, 33.969043 ], [ -6.755762, 34.13291 ], [ -6.353125, 34.776074 ], [ -5.957568, 35.681152 ], [ -5.924805, 35.785791 ], [ -5.747949, 35.815967 ], [ -5.622852, 35.828906 ], [ -5.522266, 35.862012 ], [ -5.397363, 35.929883 ], [ -5.277832, 35.902734 ], [ -5.337646, 35.856543 ], [ -5.337646, 35.745215 ], [ -5.252686, 35.614746 ], [ -5.105371, 35.467773 ], [ -4.837207, 35.281299 ], [ -4.62832, 35.206396 ], [ -4.32998, 35.161475 ], [ -3.982422, 35.243408 ], [ -3.787988, 35.244922 ], [ -3.693262, 35.27998 ], [ -3.590625, 35.22832 ], [ -3.394727, 35.211816 ], [ -3.206006, 35.239111 ], [ -3.063086, 35.317236 ], [ -2.972217, 35.407275 ], [ -2.957959, 35.363086 ], [ -2.953613, 35.315137 ], [ -2.925977, 35.287109 ], [ -2.869531, 35.172656 ], [ -2.839941, 35.127832 ], [ -2.731396, 35.135205 ], [ -2.636816, 35.112695 ], [ -2.42373, 35.123486 ], [ -2.219629, 35.104199 ], [ -2.190771, 35.029785 ] ] ] } },
{ "type": "Feature", "properties": { "name": "Monaco" }, "geometry": { "type": "Polygon", "coordinates": [ [ [ 7.377734, 43.731738 ], [ 7.380078, 43.753223 ], [ 7.39502, 43.765332 ], [ 7.414453, 43.770898 ], [ 7.436914, 43.761475 ], [ 7.438672, 43.750439 ], [ 7.377734, 43.731738 ] ] ] } },
{ "type": "Feature", "properties": { "name": "Luxembourg" }, "geometry": { "type": "Polygon", "coordinates": [ [ [ 6.108301, 50.094238 ], [ 6.109766, 50.034375 ], [ 6.138184, 49.974316 ], [ 6.204883, 49.915137 ], [ 6.256055, 49.872168 ], [ 6.324609, 49.837891 ], [ 6.440918, 49.805322 ], [ 6.487305, 49.798486 ], [ 6.49375, 49.754395 ], [ 6.484766, 49.707812 ], [ 6.444629, 49.682031 ], [ 6.406738, 49.644971 ], [ 6.37832, 49.599609 ], [ 6.348438, 49.512695 ], [ 6.344336, 49.452734 ], [ 6.277344, 49.477539 ], [ 6.242188, 49.494336 ], [ 6.181055, 49.498926 ], [ 6.119922, 49.485205 ], [ 6.074121, 49.454639 ], [ 6.011426, 49.445459 ], [ 5.959473, 49.454639 ], [ 5.928906, 49.477539 ], [ 5.901367, 49.489746 ], [ 5.823438, 49.505078 ], [ 5.789746, 49.538281 ], [ 5.81543, 49.553809 ], [ 5.837598, 49.57832 ], [ 5.856543, 49.612842 ], [ 5.880371, 49.644775 ], [ 5.803711, 49.732178 ], [ 5.787988, 49.758887 ], [ 5.725, 49.808301 ], [ 5.725781, 49.83335 ], [ 5.74082, 49.857178 ], [ 5.735254, 49.875635 ], [ 5.744043, 49.919629 ], [ 5.788086, 49.96123 ], [ 5.817383, 50.012695 ], [ 5.866895, 50.082812 ], [ 5.97627, 50.167187 ], [ 6.054785, 50.154297 ], [ 6.089063, 50.15459 ], [ 6.110059, 50.123779 ], [ 6.116504, 50.120996 ], [ 6.108301, 50.094238 ] ] ] } },
{ "type": "Feature", "properties": { "name": "Liechtenstein" }, "geometry": { "type": "Polygon", "coordinates": [ [ [ 9.502344, 47.062744 ], [ 9.487695, 47.062256 ], [ 9.479492, 47.09751 ], [ 9.484277, 47.172656 ], [ 9.527539, 47.270752 ], [ 9.536816, 47.254639 ], [ 9.542188, 47.234131 ], [ 9.551074, 47.212256 ], [ 9.555762, 47.185498 ], [ 9.571875, 47.15791 ], [ 9.601172, 47.13208 ], [ 9.610547, 47.107129 ], [ 9.595703, 47.07583 ], [ 9.580273, 47.057373 ], [ 9.502344, 47.062744 ] ] ] } },
{ "type": "Feature", "properties": { "name": "Libya" }, "geometry": { "type": "Polygon", "coordinates": [ [ [ 11.502441, 33.155566 ], [ 11.50459, 33.181934 ], [ 11.657129, 33.118896 ], [ 11.813477, 33.093701 ], [ 11.999322602944432, 33.0 ], [ 11.473553086313428, 33.0 ], [ 11.502441, 33.155566 ] ] ] } },
{ "type": "Feature", "properties": { "name": "Italy" }, "geometry": { "type": "MultiPolygon", "coordinates": [ [ [ [ 7.055762, 45.903809 ], [ 7.129004, 45.88042 ], [ 7.32793, 45.912354 ], [ 7.451563, 45.944434 ], [ 7.538574, 45.978174 ], [ 7.592578, 45.972217 ], [ 7.787891, 45.921826 ], [ 7.852344, 45.947461 ], [ 7.993164, 46.015918 ], [ 8.014258, 46.051904 ], [ 8.125195, 46.160937 ], [ 8.127246, 46.187598 ], [ 8.081543, 46.256006 ], [ 8.095703, 46.271045 ], [ 8.231934, 46.341211 ], [ 8.298535, 46.403418 ], [ 8.370703, 46.445117 ], [ 8.422559, 46.446045 ], [ 8.436816, 46.431885 ], [ 8.442969, 46.402783 ], [ 8.438477, 46.282861 ], [ 8.458398, 46.245898 ], [ 8.56543, 46.159814 ], [ 8.641699, 46.110791 ], [ 8.818555, 46.077148 ], [ 8.826758, 46.061035 ], [ 8.778027, 45.996191 ], [ 8.885156, 45.918701 ], [ 8.904297, 45.861963 ], [ 8.953711, 45.830029 ], [ 9.02373, 45.845703 ], [ 9.04668, 45.875586 ], [ 9.019141, 45.928125 ], [ 8.998926, 45.983105 ], [ 9.003027, 46.014893 ], [ 9.022363, 46.051465 ], [ 9.070996, 46.102441 ], [ 9.203418, 46.219238 ], [ 9.251074, 46.286768 ], [ 9.259766, 46.39126 ], [ 9.260156, 46.475195 ], [ 9.304395, 46.495557 ], [ 9.399316, 46.480664 ], [ 9.427637, 46.482324 ], [ 9.440625, 46.430811 ], [ 9.481055, 46.348779 ], [ 9.528711, 46.306201 ], [ 9.57959, 46.296094 ], [ 9.639453, 46.295898 ], [ 9.787793, 46.346045 ], [ 9.884473, 46.367773 ], [ 9.939258, 46.361816 ], [ 9.97168, 46.327686 ], [ 10.041016, 46.238086 ], [ 10.080566, 46.227979 ], [ 10.12832, 46.238232 ], [ 10.145215, 46.253516 ], [ 10.129883, 46.287988 ], [ 10.109668, 46.362842 ], [ 10.081934, 46.420752 ], [ 10.045605, 46.4479 ], [ 10.038281, 46.483203 ], [ 10.06123, 46.546777 ], [ 10.087012, 46.599902 ], [ 10.1375, 46.614355 ], [ 10.195508, 46.621094 ], [ 10.272266, 46.564844 ], [ 10.363086, 46.54707 ], [ 10.430664, 46.550049 ], [ 10.44248, 46.582861 ], [ 10.438281, 46.618848 ], [ 10.397949, 46.665039 ], [ 10.406055, 46.734863 ], [ 10.452832, 46.864941 ], [ 10.479395, 46.855127 ], [ 10.579785, 46.853711 ], [ 10.689258, 46.846387 ], [ 10.759766, 46.793311 ], [ 10.828906, 46.775244 ], [ 10.927344, 46.769482 ], [ 10.993262, 46.777002 ], [ 11.025098, 46.796973 ], [ 11.063477, 46.859131 ], [ 11.133887, 46.936182 ], [ 11.244434, 46.975684 ], [ 11.433203, 46.983057 ], [ 11.527539, 46.997412 ], [ 11.625488, 46.996582 ], [ 11.699414, 46.984668 ], [ 11.775684, 46.986084 ], [ 11.969531, 47.039697 ], [ 12.169434, 47.082129 ], [ 12.197168, 47.075 ], [ 12.20127, 47.060889 ], [ 12.165527, 47.028174 ], [ 12.130762, 46.984766 ], [ 12.154102, 46.935254 ], [ 12.267969, 46.835889 ], [ 12.330078, 46.759814 ], [ 12.388281, 46.702637 ], [ 12.479199, 46.67251 ], [ 12.598633, 46.654102 ], [ 12.699805, 46.647461 ], [ 12.805566, 46.625879 ], [ 13.16875, 46.572656 ], [ 13.351562, 46.55791 ], [ 13.490039, 46.555566 ], [ 13.7, 46.520264 ], [ 13.679688, 46.462891 ], [ 13.637109, 46.448535 ], [ 13.563281, 46.415088 ], [ 13.478516, 46.369189 ], [ 13.399512, 46.317529 ], [ 13.378223, 46.261621 ], [ 13.399609, 46.224951 ], [ 13.420996, 46.212305 ], [ 13.449805, 46.223535 ], [ 13.491797, 46.216602 ], [ 13.544727, 46.196582 ], [ 13.63252, 46.177051 ], [ 13.634961, 46.157764 ], [ 13.616602, 46.133105 ], [ 13.548047, 46.089111 ], [ 13.486426, 46.039551 ], [ 13.480273, 46.009229 ], [ 13.487695, 45.987109 ], [ 13.50918, 45.973779 ], [ 13.600586, 45.979785 ], [ 13.613965, 45.96167 ], [ 13.569629, 45.834131 ], [ 13.583398, 45.812354 ], [ 13.663477, 45.791992 ], [ 13.72168, 45.761279 ], [ 13.831152, 45.68042 ], [ 13.874707, 45.614844 ], [ 13.844727, 45.592871 ], [ 13.775977, 45.581982 ], [ 13.719824, 45.587598 ], [ 13.783301, 45.627246 ], [ 13.62832, 45.770947 ], [ 13.558203, 45.770703 ], [ 13.465137, 45.709961 ], [ 13.206348, 45.771387 ], [ 13.156738, 45.746582 ], [ 13.120117, 45.6979 ], [ 13.030273, 45.6375 ], [ 12.903027, 45.610791 ], [ 12.76123, 45.544287 ], [ 12.611719, 45.497217 ], [ 12.497559, 45.46167 ], [ 12.432129, 45.46792 ], [ 12.536133, 45.544922 ], [ 12.491797, 45.546289 ], [ 12.353809, 45.491992 ], [ 12.274316, 45.446045 ], [ 12.248828, 45.368848 ], [ 12.225684, 45.241504 ], [ 12.286328, 45.207715 ], [ 12.39248, 45.039795 ], [ 12.523438, 44.967969 ], [ 12.497949, 44.899414 ], [ 12.463574, 44.845215 ], [ 12.384473, 44.79834 ], [ 12.319043, 44.833105 ], [ 12.278906, 44.832227 ], [ 12.24834, 44.72251 ], [ 12.30498, 44.429443 ], [ 12.396289, 44.223877 ], [ 12.486816, 44.134229 ], [ 12.691113, 43.994727 ], [ 12.907031, 43.921191 ], [ 13.295313, 43.686084 ], [ 13.508203, 43.61167 ], [ 13.56416, 43.571289 ], [ 13.693262, 43.389893 ], [ 13.804688, 43.180371 ], [ 13.924902, 42.851562 ], [ 14.0, 42.709339571650673 ], [ 14.0, 40.936173611623822 ], [ 13.859766, 41.12998 ], [ 13.733398, 41.235645 ], [ 13.669727, 41.254492 ], [ 13.554785, 41.232178 ], [ 13.361914, 41.278516 ], [ 13.246875, 41.288867 ], [ 13.183398, 41.277686 ], [ 13.088672, 41.243848 ], [ 13.041016, 41.266211 ], [ 13.024219, 41.300928 ], [ 12.849219, 41.40874 ], [ 12.630859, 41.469678 ], [ 12.205664, 41.812646 ], [ 12.075293, 41.940869 ], [ 11.807031, 42.082031 ], [ 11.637305, 42.287549 ], [ 11.498438, 42.362939 ], [ 11.296289, 42.423291 ], [ 11.249707, 42.415723 ], [ 11.188867, 42.393115 ], [ 11.141211, 42.389893 ], [ 11.103223, 42.416602 ], [ 11.141797, 42.444092 ], [ 11.184766, 42.456592 ], [ 11.167773, 42.535156 ], [ 10.937793, 42.738721 ], [ 10.803125, 42.804297 ], [ 10.765137, 42.844678 ], [ 10.737109, 42.899951 ], [ 10.708398, 42.936328 ], [ 10.644629, 42.957178 ], [ 10.590234, 42.953613 ], [ 10.514844, 42.967529 ], [ 10.517285, 43.065137 ], [ 10.532324, 43.140137 ], [ 10.520801, 43.203809 ], [ 10.447559, 43.371191 ], [ 10.320508, 43.513086 ], [ 10.245801, 43.8521 ], [ 10.188086, 43.94751 ], [ 10.047656, 44.019971 ], [ 9.730859, 44.101172 ], [ 9.289355, 44.319238 ], [ 9.195996, 44.322998 ], [ 8.930371, 44.407764 ], [ 8.76582, 44.422314 ], [ 8.551953, 44.346143 ], [ 8.292383, 44.136523 ], [ 8.081641, 43.918945 ], [ 8.00498, 43.876758 ], [ 7.733301, 43.802588 ], [ 7.493164, 43.767139 ], [ 7.490527, 43.822949 ], [ 7.482031, 43.864893 ], [ 7.522656, 43.911084 ], [ 7.589648, 43.96543 ], [ 7.651465, 44.033643 ], [ 7.677148, 44.083154 ], [ 7.665039, 44.116016 ], [ 7.637207, 44.164844 ], [ 7.599414, 44.168359 ], [ 7.370898, 44.127393 ], [ 7.318555, 44.137988 ], [ 7.149414, 44.201709 ], [ 6.967285, 44.280029 ], [ 6.900195, 44.335742 ], [ 6.874805, 44.392041 ], [ 6.893848, 44.428174 ], [ 6.878613, 44.463281 ], [ 6.842969, 44.510693 ], [ 6.875195, 44.564551 ], [ 6.931934, 44.631641 ], [ 6.960352, 44.677148 ], [ 7.00791, 44.688965 ], [ 7.030664, 44.716699 ], [ 6.992676, 44.827295 ], [ 6.972852, 44.84502 ], [ 6.939844, 44.85874 ], [ 6.889355, 44.860303 ], [ 6.801074, 44.883154 ], [ 6.738184, 44.921387 ], [ 6.724707, 44.972998 ], [ 6.691406, 45.022607 ], [ 6.634766, 45.068164 ], [ 6.627734, 45.117969 ], [ 6.692285, 45.144287 ], [ 6.780371, 45.145312 ], [ 6.842285, 45.135645 ], [ 6.98125, 45.215576 ], [ 7.032422, 45.222607 ], [ 7.07832, 45.239941 ], [ 7.116797, 45.349023 ], [ 7.146387, 45.381738 ], [ 7.153418, 45.400928 ], [ 7.126074, 45.423682 ], [ 7.013672, 45.500488 ], [ 6.962402, 45.580566 ], [ 6.881445, 45.670361 ], [ 6.80625, 45.71001 ], [ 6.790918, 45.740869 ], [ 6.78916, 45.780078 ], [ 6.804492, 45.814551 ], [ 6.94082, 45.868359 ], [ 7.021094, 45.925781 ], [ 7.055762, 45.903809 ] ], [ [ 12.438379, 41.906201 ], [ 12.430566, 41.905469 ], [ 12.427539, 41.900732 ], [ 12.430566, 41.897559 ], [ 12.43916, 41.898389 ], [ 12.438379, 41.906201 ] ], [ [ 12.514648, 43.952979 ], [ 12.503711, 43.989746 ], [ 12.441113, 43.982422 ], [ 12.396875, 43.93457 ], [ 12.426367, 43.894092 ], [ 12.485254, 43.901416 ], [ 12.514648, 43.952979 ] ] ], [ [ [ 10.42832, 42.819189 ], [ 10.432227, 42.796582 ], [ 10.409961, 42.770996 ], [ 10.419336, 42.713184 ], [ 10.335645, 42.761133 ], [ 10.208984, 42.736914 ], [ 10.13125, 42.742041 ], [ 10.109766, 42.785059 ], [ 10.127539, 42.810303 ], [ 10.248242, 42.815771 ], [ 10.285742, 42.828076 ], [ 10.358984, 42.822314 ], [ 10.395117, 42.858154 ], [ 10.42832, 42.819189 ] ] ], [ [ [ 13.893652, 40.696973 ], [ 13.867676, 40.70874 ], [ 13.853516, 40.724072 ], [ 13.871191, 40.761816 ], [ 13.962109, 40.739404 ], [ 13.96084, 40.718164 ], [ 13.938281, 40.705615 ], [ 13.893652, 40.696973 ] ] ], [ [ [ 12.00332, 36.745996 ], [ 11.940625, 36.780371 ], [ 11.936426, 36.828613 ], [ 11.948047, 36.843066 ], [ 12.024219, 36.820947 ], [ 12.048047, 36.776367 ], [ 12.05127, 36.757031 ], [ 12.00332, 36.745996 ] ] ], [ [ [ 13.905469, 37.100635 ], [ 13.800586, 37.135889 ], [ 13.587109, 37.25415 ], [ 13.360938, 37.34873 ], [ 13.264941, 37.410352 ], [ 13.221094, 37.451807 ], [ 13.169922, 37.479297 ], [ 13.040332, 37.506543 ], [ 12.924121, 37.570508 ], [ 12.871191, 37.575195 ], [ 12.757324, 37.567383 ], [ 12.699023, 37.571826 ], [ 12.640234, 37.594336 ], [ 12.526758, 37.669531 ], [ 12.454395, 37.773779 ], [ 12.435547, 37.819775 ], [ 12.486816, 37.938721 ], [ 12.547656, 38.05293 ], [ 12.60166, 38.084961 ], [ 12.664355, 38.10791 ], [ 12.702344, 38.141699 ], [ 12.734375, 38.183057 ], [ 12.850684, 38.063721 ], [ 12.902734, 38.034863 ], [ 12.955469, 38.041309 ], [ 13.049023, 38.084082 ], [ 13.056836, 38.130908 ], [ 13.159961, 38.190332 ], [ 13.291113, 38.191455 ], [ 13.35166, 38.180518 ], [ 13.383496, 38.126807 ], [ 13.433496, 38.110254 ], [ 13.491309, 38.103125 ], [ 13.681543, 38.000732 ], [ 13.734863, 37.984033 ], [ 13.788867, 37.981201 ], [ 13.936621, 38.02417 ], [ 14.0, 38.0333135830533 ], [ 14.0, 37.105800332856532 ], [ 13.905469, 37.100635 ] ] ], [ [ [ 9.682031, 40.818115 ], [ 9.794336, 40.556201 ], [ 9.805273, 40.499561 ], [ 9.782813, 40.441504 ], [ 9.754199, 40.400293 ], [ 9.642969, 40.268408 ], [ 9.659473, 40.159229 ], [ 9.700781, 40.091797 ], [ 9.706738, 40.017041 ], [ 9.686035, 39.924365 ], [ 9.616992, 39.354395 ], [ 9.583594, 39.253564 ], [ 9.5625, 39.166016 ], [ 9.486328, 39.139551 ], [ 9.388086, 39.167529 ], [ 9.26416, 39.216797 ], [ 9.206934, 39.213818 ], [ 9.149316, 39.196973 ], [ 9.101758, 39.211279 ], [ 9.056348, 39.23916 ], [ 9.022656, 39.043262 ], [ 8.966602, 38.963721 ], [ 8.881348, 38.912891 ], [ 8.801172, 38.909668 ], [ 8.718555, 38.926709 ], [ 8.648535, 38.926562 ], [ 8.59541, 38.964307 ], [ 8.55332, 39.030322 ], [ 8.48623, 39.110498 ], [ 8.418164, 39.205713 ], [ 8.410742, 39.291797 ], [ 8.399121, 39.481592 ], [ 8.418652, 39.523047 ], [ 8.44707, 39.562793 ], [ 8.461035, 39.647705 ], [ 8.451172, 39.72168 ], [ 8.471094, 39.748096 ], [ 8.510742, 39.72168 ], [ 8.540527, 39.731592 ], [ 8.538672, 39.769678 ], [ 8.547754, 39.839209 ], [ 8.495898, 39.897461 ], [ 8.407813, 39.917236 ], [ 8.399316, 39.978174 ], [ 8.408594, 40.037646 ], [ 8.455078, 40.077588 ], [ 8.470801, 40.130713 ], [ 8.471289, 40.292676 ], [ 8.40918, 40.352344 ], [ 8.385352, 40.442676 ], [ 8.353223, 40.500537 ], [ 8.295508, 40.558643 ], [ 8.230273, 40.605957 ], [ 8.189941, 40.651611 ], [ 8.180859, 40.771045 ], [ 8.203809, 40.870703 ], [ 8.224219, 40.91333 ], [ 8.245215, 40.907031 ], [ 8.310156, 40.85752 ], [ 8.363281, 40.846338 ], [ 8.468457, 40.834326 ], [ 8.571875, 40.850195 ], [ 8.698926, 40.895264 ], [ 8.821191, 40.949902 ], [ 8.998145, 41.110352 ], [ 9.107227, 41.14292 ], [ 9.163086, 41.185156 ], [ 9.182129, 41.242188 ], [ 9.228418, 41.25708 ], [ 9.283008, 41.20166 ], [ 9.350781, 41.195898 ], [ 9.455176, 41.150146 ], [ 9.500195, 41.106348 ], [ 9.53877, 41.053662 ], [ 9.575684, 41.030518 ], [ 9.615332, 41.017285 ], [ 9.621191, 41.004883 ], [ 9.589746, 40.99248 ], [ 9.553711, 40.932129 ], [ 9.574023, 40.914746 ], [ 9.632031, 40.882031 ], [ 9.682031, 40.818115 ] ] ], [ [ [ 8.421484, 38.968652 ], [ 8.360938, 39.038672 ], [ 8.358594, 39.098779 ], [ 8.366797, 39.115918 ], [ 8.440625, 39.090625 ], [ 8.478906, 39.067529 ], [ 8.421484, 38.968652 ] ] ], [ [ [ 8.252734, 40.994141 ], [ 8.205664, 40.997461 ], [ 8.224023, 41.031299 ], [ 8.267383, 41.099121 ], [ 8.320215, 41.121875 ], [ 8.34375, 41.101611 ], [ 8.318945, 41.062744 ], [ 8.286035, 41.039844 ], [ 8.252734, 40.994141 ] ] ] ] } },
{ "type": "Feature", "properties": { "name": "Ireland" }, "geometry": { "type": "Polygon", "coordinates": [ [ [ -6.027393, 52.9271 ], [ -6.071484, 52.865625 ], [ -6.130664, 52.807275 ], [ -6.169336, 52.738135 ], [ -6.199219, 52.663477 ], [ -6.217236, 52.543115 ], [ -6.34541, 52.402002 ], [ -6.399951, 52.366943 ], [ -6.463184, 52.345361 ], [ -6.325, 52.24668 ], [ -6.437939, 52.202686 ], [ -6.561084, 52.188818 ], [ -6.697314, 52.213525 ], [ -6.782227, 52.210498 ], [ -6.859717, 52.178564 ], [ -6.890234, 52.159229 ], [ -6.914648, 52.168555 ], [ -6.965771, 52.249512 ], [ -7.003271, 52.165918 ], [ -7.081787, 52.139307 ], [ -7.216211, 52.144971 ], [ -7.440869, 52.122705 ], [ -7.527295, 52.098877 ], [ -7.563184, 52.061621 ], [ -7.589844, 52.018555 ], [ -7.624902, 51.993115 ], [ -7.664551, 51.979736 ], [ -7.837988, 51.947998 ], [ -7.872168, 51.935303 ], [ -7.95249, 51.865771 ], [ -8.057812, 51.825586 ], [ -8.14502, 51.813525 ], [ -8.222461, 51.854004 ], [ -8.254297, 51.87832 ], [ -8.290234, 51.890674 ], [ -8.40918, 51.88877 ], [ -8.371631, 51.87627 ], [ -8.347363, 51.847705 ], [ -8.335596, 51.792969 ], [ -8.349121, 51.739307 ], [ -8.407812, 51.712061 ], [ -8.477832, 51.707031 ], [ -8.588281, 51.651367 ], [ -8.734473, 51.636182 ], [ -8.813428, 51.584912 ], [ -9.296484, 51.498242 ], [ -9.323877, 51.497217 ], [ -9.390576, 51.519287 ], [ -9.462891, 51.529053 ], [ -9.534863, 51.522168 ], [ -9.737305, 51.47373 ], [ -9.835352, 51.48335 ], [ -9.710352, 51.603711 ], [ -9.542383, 51.664453 ], [ -9.524902, 51.681104 ], [ -9.579834, 51.689258 ], [ -9.899023, 51.64707 ], [ -10.009912, 51.611133 ], [ -10.120752, 51.600684 ], [ -10.069434, 51.655566 ], [ -9.926416, 51.730713 ], [ -9.849707, 51.766113 ], [ -9.802881, 51.780127 ], [ -9.749512, 51.824268 ], [ -9.598828, 51.874414 ], [ -10.084229, 51.770996 ], [ -10.211719, 51.783594 ], [ -10.241748, 51.812451 ], [ -10.341064, 51.798926 ], [ -10.378711, 51.86875 ], [ -10.231592, 51.974512 ], [ -10.14585, 52.02002 ], [ -10.044043, 52.04458 ], [ -9.946045, 52.079834 ], [ -9.909668, 52.122949 ], [ -9.955811, 52.13667 ], [ -10.249512, 52.125732 ], [ -10.390234, 52.134912 ], [ -10.382617, 52.169092 ], [ -10.356689, 52.206934 ], [ -10.210938, 52.27168 ], [ -10.13208, 52.28208 ], [ -10.061768, 52.275928 ], [ -9.993115, 52.259326 ], [ -9.937305, 52.237646 ], [ -9.772119, 52.250098 ], [ -9.841064, 52.291455 ], [ -9.853223, 52.375488 ], [ -9.906055, 52.403711 ], [ -9.838477, 52.442676 ], [ -9.761133, 52.466357 ], [ -9.632227, 52.546924 ], [ -9.586328, 52.55918 ], [ -9.33125, 52.57876 ], [ -9.056152, 52.621143 ], [ -8.783447, 52.679639 ], [ -8.923291, 52.712305 ], [ -8.990283, 52.75542 ], [ -9.0979, 52.668262 ], [ -9.175391, 52.634912 ], [ -9.394238, 52.61709 ], [ -9.463477, 52.626904 ], [ -9.561035, 52.653955 ], [ -9.591357, 52.643652 ], [ -9.619531, 52.622754 ], [ -9.764355, 52.57998 ], [ -9.916602, 52.569727 ], [ -9.7396, 52.648193 ], [ -9.51499, 52.781152 ], [ -9.464893, 52.823193 ], [ -9.393652, 52.89624 ], [ -9.415723, 52.92876 ], [ -9.461963, 52.947266 ], [ -9.404860260045377, 53.0 ], [ -6.035225455413197, 53.0 ], [ -6.027393, 52.9271 ] ] ] } },
{ "type": "Feature", "properties": { "name": "Germany" }, "geometry": { "type": "Polygon", "coordinates": [ [ [ 9.35, 47.598926 ], [ 9.182813, 47.670703 ], [ 9.127539, 47.670703 ], [ 8.881152, 47.656396 ], [ 8.874023, 47.662695 ], [ 8.831152, 47.703613 ], [ 8.793066, 47.716553 ], [ 8.770117, 47.709912 ], [ 8.754785, 47.698047 ], [ 8.72832, 47.700049 ], [ 8.617871, 47.766113 ], [ 8.572656, 47.775635 ], [ 8.509863, 47.766895 ], [ 8.435742, 47.731348 ], [ 8.403418, 47.687793 ], [ 8.413281, 47.662695 ], [ 8.451758, 47.651807 ], [ 8.552344, 47.659131 ], [ 8.56709, 47.651904 ], [ 8.570508, 47.637793 ], [ 8.559473, 47.624023 ], [ 8.477637, 47.612695 ], [ 8.454004, 47.596191 ], [ 8.430078, 47.592139 ], [ 8.414746, 47.5896 ], [ 8.327832, 47.606934 ], [ 8.198242, 47.606934 ], [ 8.09375, 47.576172 ], [ 7.927051, 47.563867 ], [ 7.698047, 47.569873 ], [ 7.615625, 47.592725 ], [ 7.56543, 47.606543 ], [ 7.529395, 47.673877 ], [ 7.538574, 47.773633 ], [ 7.593262, 47.905664 ], [ 7.608496, 48.002588 ], [ 7.58418, 48.064307 ], [ 7.616602, 48.156787 ], [ 7.705664, 48.280029 ], [ 7.765137, 48.41001 ], [ 7.794824, 48.546826 ], [ 7.837988, 48.636035 ], [ 7.922754, 48.698535 ], [ 8.124023, 48.873291 ], [ 8.140332, 48.886426 ], [ 8.134863, 48.973584 ], [ 8.080664, 48.985889 ], [ 8.00127, 49.010937 ], [ 7.799219, 49.041895 ], [ 7.610938, 49.061768 ], [ 7.525488, 49.086377 ], [ 7.450586, 49.152197 ], [ 7.404199, 49.153076 ], [ 7.313379, 49.129541 ], [ 7.199902, 49.113623 ], [ 7.117383, 49.127539 ], [ 7.065723, 49.124854 ], [ 7.036719, 49.112695 ], [ 7.022168, 49.123437 ], [ 7.001465, 49.179883 ], [ 6.958301, 49.194629 ], [ 6.891211, 49.20752 ], [ 6.849512, 49.201953 ], [ 6.820703, 49.173926 ], [ 6.77627, 49.15415 ], [ 6.735449, 49.160596 ], [ 6.607617, 49.290869 ], [ 6.574707, 49.319678 ], [ 6.566309, 49.346191 ], [ 6.534277, 49.394678 ], [ 6.458105, 49.442871 ], [ 6.382227, 49.458154 ], [ 6.344336, 49.452734 ], [ 6.348438, 49.512695 ], [ 6.37832, 49.599609 ], [ 6.406738, 49.644971 ], [ 6.444629, 49.682031 ], [ 6.484766, 49.707812 ], [ 6.49375, 49.754395 ], [ 6.487305, 49.798486 ], [ 6.440918, 49.805322 ], [ 6.324609, 49.837891 ], [ 6.256055, 49.872168 ], [ 6.204883, 49.915137 ], [ 6.138184, 49.974316 ], [ 6.109766, 50.034375 ], [ 6.108301, 50.094238 ], [ 6.116504, 50.120996 ], [ 6.121289, 50.139355 ], [ 6.175098, 50.232666 ], [ 6.364453, 50.316162 ], [ 6.343652, 50.400244 ], [ 6.340918, 50.451758 ], [ 6.294922, 50.485498 ], [ 6.203027, 50.499121 ], [ 6.178711, 50.52251 ], [ 6.168457, 50.545361 ], [ 6.235938, 50.59668 ], [ 6.154492, 50.637256 ], [ 6.119434, 50.679248 ], [ 6.005957, 50.732227 ], [ 5.993945, 50.750439 ], [ 6.048438, 50.904883 ], [ 6.006836, 50.949951 ], [ 5.955078, 50.972949 ], [ 5.894727, 50.984229 ], [ 5.867188, 51.005664 ], [ 5.85752, 51.030127 ], [ 5.868359, 51.045312 ], [ 5.939258, 51.04082 ], [ 5.961035, 51.056689 ], [ 6.12998, 51.147412 ], [ 6.136914, 51.164844 ], [ 6.113379, 51.174707 ], [ 6.082422, 51.17998 ], [ 6.074805, 51.199023 ], [ 6.075879, 51.224121 ], [ 6.166211, 51.354834 ], [ 6.192871, 51.410596 ], [ 6.198828, 51.45 ], [ 6.193262, 51.488916 ], [ 6.141602, 51.550098 ], [ 6.091113, 51.598926 ], [ 6.089355, 51.637793 ], [ 6.052734, 51.658252 ], [ 5.948535, 51.762402 ], [ 5.94873, 51.802686 ], [ 6.007617, 51.833984 ], [ 6.089844, 51.853955 ], [ 6.117188, 51.87041 ], [ 6.166504, 51.880762 ], [ 6.29707, 51.850732 ], [ 6.355664, 51.824658 ], [ 6.372168, 51.830029 ], [ 6.425, 51.858398 ], [ 6.517578, 51.853955 ], [ 6.741797, 51.910889 ], [ 6.775195, 51.938281 ], [ 6.800391, 51.967383 ], [ 6.802441, 51.980176 ], [ 6.715625, 52.036182 ], [ 6.712988, 52.056885 ], [ 6.724512, 52.080225 ], [ 6.749023, 52.098682 ], [ 6.800391, 52.11123 ], [ 6.855078, 52.135791 ], [ 6.977246, 52.205518 ], [ 7.019629, 52.266016 ], [ 7.032617, 52.331494 ], [ 7.035156, 52.380225 ], [ 7.001855, 52.418994 ], [ 6.968164, 52.444092 ], [ 6.92207, 52.440283 ], [ 6.83252, 52.442285 ], [ 6.748828, 52.464014 ], [ 6.70293, 52.499219 ], [ 6.691602, 52.530176 ], [ 6.712402, 52.549658 ], [ 6.71875, 52.573584 ], [ 6.705371, 52.597656 ], [ 6.710742, 52.617871 ], [ 6.748438, 52.634082 ], [ 7.013184, 52.633545 ], [ 7.033008, 52.651367 ], [ 7.050879, 52.744775 ], [ 7.11709, 52.887012 ], [ 7.179492, 52.966211 ], [ 7.189941, 52.999512 ], [ 7.1899384624364, 53.0 ], [ 14.0, 53.0 ], [ 14.0, 50.801467609897394 ], [ 13.998438, 50.801123 ], [ 13.898535, 50.761279 ], [ 13.701367, 50.716504 ], [ 13.556738, 50.704639 ], [ 13.526563, 50.692822 ], [ 13.472559, 50.616943 ], [ 13.436133, 50.601074 ], [ 13.401172, 50.609326 ], [ 13.374609, 50.621729 ], [ 13.341016, 50.611426 ], [ 13.306055, 50.586328 ], [ 13.269531, 50.576416 ], [ 13.237695, 50.576758 ], [ 13.181152, 50.510498 ], [ 13.016406, 50.490381 ], [ 12.99707, 50.456055 ], [ 12.966797, 50.416211 ], [ 12.942676, 50.406445 ], [ 12.868262, 50.422217 ], [ 12.76543, 50.430957 ], [ 12.706445, 50.409131 ], [ 12.635547, 50.39707 ], [ 12.549023, 50.393408 ], [ 12.452637, 50.349805 ], [ 12.358594, 50.273242 ], [ 12.305664, 50.205713 ], [ 12.277344, 50.181445 ], [ 12.231152, 50.244873 ], [ 12.174805, 50.288379 ], [ 12.134863, 50.310937 ], [ 12.099219, 50.310986 ], [ 12.089844, 50.301758 ], [ 12.089746, 50.268555 ], [ 12.127832, 50.213428 ], [ 12.175, 50.17583 ], [ 12.18252, 50.148047 ], [ 12.207813, 50.09751 ], [ 12.276465, 50.042334 ], [ 12.38418, 49.998584 ], [ 12.457617, 49.955518 ], [ 12.512012, 49.895801 ], [ 12.5125, 49.877441 ], [ 12.497559, 49.853076 ], [ 12.471875, 49.830078 ], [ 12.450195, 49.800146 ], [ 12.390527, 49.739648 ], [ 12.408203, 49.713184 ], [ 12.457031, 49.679785 ], [ 12.500293, 49.639697 ], [ 12.555762, 49.574854 ], [ 12.632031, 49.46123 ], [ 12.681152, 49.414502 ], [ 12.747852, 49.366211 ], [ 12.813379, 49.329346 ], [ 12.916699, 49.330469 ], [ 13.02373, 49.260107 ], [ 13.140527, 49.15835 ], [ 13.227832, 49.11167 ], [ 13.28877, 49.097461 ], [ 13.339063, 49.060791 ], [ 13.383691, 49.008105 ], [ 13.401172, 48.977588 ], [ 13.440723, 48.955566 ], [ 13.547656, 48.959668 ], [ 13.684961, 48.876709 ], [ 13.769922, 48.815967 ], [ 13.814746, 48.766943 ], [ 13.80293, 48.74751 ], [ 13.797461, 48.686426 ], [ 13.798828, 48.62168 ], [ 13.785352, 48.587451 ], [ 13.723926, 48.542383 ], [ 13.692188, 48.532764 ], [ 13.675195, 48.523047 ], [ 13.486621, 48.581836 ], [ 13.47168, 48.571826 ], [ 13.459863, 48.564551 ], [ 13.409375, 48.394141 ], [ 13.374609, 48.361377 ], [ 13.322852, 48.33125 ], [ 13.215234, 48.301904 ], [ 13.14043, 48.289941 ], [ 13.082129, 48.275098 ], [ 12.897461, 48.203711 ], [ 12.814258, 48.16084 ], [ 12.760352, 48.106982 ], [ 12.760059, 48.075977 ], [ 12.849902, 47.984814 ], [ 12.953516, 47.890625 ], [ 12.954199, 47.807764 ], [ 12.908301, 47.745801 ], [ 12.897656, 47.721875 ], [ 12.928125, 47.712842 ], [ 12.985547, 47.709424 ], [ 13.033594, 47.69873 ], [ 13.054102, 47.655127 ], [ 13.047949, 47.57915 ], [ 13.031543, 47.508008 ], [ 13.014355, 47.478076 ], [ 12.968066, 47.475684 ], [ 12.878906, 47.506445 ], [ 12.809375, 47.542187 ], [ 12.782813, 47.56416 ], [ 12.781152, 47.59043 ], [ 12.796191, 47.607031 ], [ 12.771387, 47.639404 ], [ 12.68584, 47.669336 ], [ 12.594238, 47.656299 ], [ 12.526563, 47.636133 ], [ 12.48291, 47.637305 ], [ 12.435742, 47.666113 ], [ 12.363184, 47.688184 ], [ 12.268359, 47.702734 ], [ 12.209277, 47.718262 ], [ 12.196875, 47.709082 ], [ 12.203809, 47.646729 ], [ 12.185645, 47.619531 ], [ 11.716797, 47.583496 ], [ 11.573926, 47.549756 ], [ 11.469922, 47.506104 ], [ 11.392969, 47.487158 ], [ 11.374121, 47.460254 ], [ 11.297949, 47.424902 ], [ 11.211914, 47.413623 ], [ 11.191211, 47.425195 ], [ 11.136035, 47.408887 ], [ 11.041992, 47.393115 ], [ 10.980859, 47.398145 ], [ 10.952148, 47.426709 ], [ 10.893945, 47.470459 ], [ 10.870605, 47.500781 ], [ 10.873047, 47.520215 ], [ 10.741602, 47.524121 ], [ 10.658691, 47.547217 ], [ 10.482813, 47.541797 ], [ 10.439453, 47.551562 ], [ 10.430371, 47.541064 ], [ 10.403906, 47.416992 ], [ 10.369141, 47.366064 ], [ 10.312793, 47.313428 ], [ 10.240625, 47.284131 ], [ 10.183008, 47.278809 ], [ 10.185742, 47.317187 ], [ 10.200293, 47.363428 ], [ 10.158789, 47.374268 ], [ 10.096484, 47.37959 ], [ 10.066309, 47.393359 ], [ 10.074219, 47.428516 ], [ 10.059863, 47.449072 ], [ 10.034082, 47.473584 ], [ 9.971582, 47.505322 ], [ 9.83916, 47.552295 ], [ 9.748926, 47.575537 ], [ 9.715137, 47.550781 ], [ 9.650586, 47.525879 ], [ 9.548926, 47.534033 ], [ 9.524023, 47.524219 ], [ 9.35, 47.598926 ] ] ] } },
{ "type": "Feature", "properties": { "name": "France" }, "geometry": { "type": "MultiPolygon", "coordinates": [ [ [ [ 9.454199, 42.658594 ], [ 9.473242, 42.615576 ], [ 9.509375, 42.585596 ], [ 9.526172, 42.552637 ], [ 9.556445, 42.160937 ], [ 9.550684, 42.129736 ], [ 9.428418, 41.972412 ], [ 9.400879, 41.926221 ], [ 9.394824, 41.731201 ], [ 9.374219, 41.678809 ], [ 9.330859, 41.627148 ], [ 9.253418, 41.460059 ], [ 9.186133, 41.384912 ], [ 9.003027, 41.476562 ], [ 8.89502, 41.516162 ], [ 8.84209, 41.558887 ], [ 8.80752, 41.588379 ], [ 8.829785, 41.627686 ], [ 8.879004, 41.668555 ], [ 8.886816, 41.700684 ], [ 8.770996, 41.737109 ], [ 8.717969, 41.761426 ], [ 8.718652, 41.804004 ], [ 8.758691, 41.87041 ], [ 8.74043, 41.925146 ], [ 8.673633, 41.922363 ], [ 8.621875, 41.930713 ], [ 8.615137, 41.959131 ], [ 8.653418, 41.995557 ], [ 8.702539, 42.043115 ], [ 8.700977, 42.095605 ], [ 8.641602, 42.118213 ], [ 8.587793, 42.16084 ], [ 8.566211, 42.218799 ], [ 8.60791, 42.258447 ], [ 8.675488, 42.284033 ], [ 8.625879, 42.343408 ], [ 8.592383, 42.344727 ], [ 8.565625, 42.357715 ], [ 8.5875, 42.385303 ], [ 8.640039, 42.426562 ], [ 8.713086, 42.549756 ], [ 8.814844, 42.60791 ], [ 8.994922, 42.645312 ], [ 9.043652, 42.66167 ], [ 9.088379, 42.70498 ], [ 9.137891, 42.73291 ], [ 9.198047, 42.729199 ], [ 9.253516, 42.712451 ], [ 9.287695, 42.694629 ], [ 9.313379, 42.713184 ], [ 9.338379, 42.766895 ], [ 9.323047, 42.814062 ], [ 9.330957, 42.943799 ], [ 9.363184, 43.017383 ], [ 9.415234, 43.021484 ], [ 9.463281, 42.981006 ], [ 9.46084, 42.945215 ], [ 9.478613, 42.860498 ], [ 9.480371, 42.80542 ], [ 9.454199, 42.658594 ] ] ], [ [ [ 7.494922, 47.547363 ], [ 7.467383, 47.507666 ], [ 7.42002, 47.455176 ], [ 7.343164, 47.433105 ], [ 7.265723, 47.425781 ], [ 7.203125, 47.432715 ], [ 7.16748, 47.453711 ], [ 7.169238, 47.473242 ], [ 7.136035, 47.489844 ], [ 7.053418, 47.489355 ], [ 6.968359, 47.453223 ], [ 6.900391, 47.394238 ], [ 6.921484, 47.36123 ], [ 6.984082, 47.352539 ], [ 7.000586, 47.339453 ], [ 7.000586, 47.32251 ], [ 6.978516, 47.302051 ], [ 6.952051, 47.267187 ], [ 6.820703, 47.163184 ], [ 6.688086, 47.058252 ], [ 6.666895, 47.026514 ], [ 6.624805, 47.004346 ], [ 6.45625, 46.94834 ], [ 6.438574, 46.925879 ], [ 6.429004, 46.832275 ], [ 6.410156, 46.75542 ], [ 6.285156, 46.683057 ], [ 6.160742, 46.611035 ], [ 6.129688, 46.566992 ], [ 6.107031, 46.516064 ], [ 6.067969, 46.458545 ], [ 6.060254, 46.428174 ], [ 6.123242, 46.378613 ], [ 6.115918, 46.337646 ], [ 6.095898, 46.279395 ], [ 6.036133, 46.238086 ], [ 5.97002, 46.214697 ], [ 5.971484, 46.151221 ], [ 6.006641, 46.142334 ], [ 6.086621, 46.147021 ], [ 6.199414, 46.193066 ], [ 6.272949, 46.252246 ], [ 6.22959, 46.308447 ], [ 6.224219, 46.319434 ], [ 6.234668, 46.332617 ], [ 6.321875, 46.393701 ], [ 6.428906, 46.430518 ], [ 6.578223, 46.437354 ], [ 6.758105, 46.415771 ], [ 6.776074, 46.406641 ], [ 6.767383, 46.369189 ], [ 6.78418, 46.313965 ], [ 6.816797, 46.275195 ], [ 6.77207, 46.165137 ], [ 6.805664, 46.130664 ], [ 6.858008, 46.089404 ], [ 6.897266, 46.051758 ], [ 6.953711, 46.017139 ], [ 7.003906, 45.958838 ], [ 7.021094, 45.925781 ], [ 6.94082, 45.868359 ], [ 6.804492, 45.814551 ], [ 6.78916, 45.780078 ], [ 6.790918, 45.740869 ], [ 6.80625, 45.71001 ], [ 6.881445, 45.670361 ], [ 6.962402, 45.580566 ], [ 7.013672, 45.500488 ], [ 7.126074, 45.423682 ], [ 7.153418, 45.400928 ], [ 7.146387, 45.381738 ], [ 7.116797, 45.349023 ], [ 7.07832, 45.239941 ], [ 7.032422, 45.222607 ], [ 6.98125, 45.215576 ], [ 6.842285, 45.135645 ], [ 6.780371, 45.145312 ], [ 6.692285, 45.144287 ], [ 6.627734, 45.117969 ], [ 6.634766, 45.068164 ], [ 6.691406, 45.022607 ], [ 6.724707, 44.972998 ], [ 6.738184, 44.921387 ], [ 6.801074, 44.883154 ], [ 6.889355, 44.860303 ], [ 6.939844, 44.85874 ], [ 6.972852, 44.84502 ], [ 6.992676, 44.827295 ], [ 7.030664, 44.716699 ], [ 7.00791, 44.688965 ], [ 6.960352, 44.677148 ], [ 6.931934, 44.631641 ], [ 6.875195, 44.564551 ], [ 6.842969, 44.510693 ], [ 6.878613, 44.463281 ], [ 6.893848, 44.428174 ], [ 6.874805, 44.392041 ], [ 6.900195, 44.335742 ], [ 6.967285, 44.280029 ], [ 7.149414, 44.201709 ], [ 7.318555, 44.137988 ], [ 7.370898, 44.127393 ], [ 7.599414, 44.168359 ], [ 7.637207, 44.164844 ], [ 7.665039, 44.116016 ], [ 7.677148, 44.083154 ], [ 7.651465, 44.033643 ], [ 7.589648, 43.96543 ], [ 7.522656, 43.911084 ], [ 7.482031, 43.864893 ], [ 7.490527, 43.822949 ], [ 7.493164, 43.767139 ], [ 7.438672, 43.750439 ], [ 7.436914, 43.761475 ], [ 7.414453, 43.770898 ], [ 7.39502, 43.765332 ], [ 7.380078, 43.753223 ], [ 7.377734, 43.731738 ], [ 7.261523, 43.696094 ], [ 7.181445, 43.659131 ], [ 6.864746, 43.43833 ], [ 6.716602, 43.373584 ], [ 6.687402, 43.33457 ], [ 6.657227, 43.26167 ], [ 6.570215, 43.199072 ], [ 6.494043, 43.169287 ], [ 6.305371, 43.138721 ], [ 6.115918, 43.072363 ], [ 6.030566, 43.100977 ], [ 5.809473, 43.0979 ], [ 5.671582, 43.177832 ], [ 5.406543, 43.228516 ], [ 5.320215, 43.344922 ], [ 5.199512, 43.35249 ], [ 5.12041, 43.348975 ], [ 5.073145, 43.366602 ], [ 5.06084, 43.406299 ], [ 5.059766, 43.444531 ], [ 4.975977, 43.426953 ], [ 4.911914, 43.426953 ], [ 4.87373, 43.411621 ], [ 4.843555, 43.393945 ], [ 4.80791, 43.405225 ], [ 4.787207, 43.401416 ], [ 4.789062, 43.378906 ], [ 4.712109, 43.373291 ], [ 4.628711, 43.387109 ], [ 4.409766, 43.447217 ], [ 4.376172, 43.456396 ], [ 4.224219, 43.479639 ], [ 4.162793, 43.503662 ], [ 4.113086, 43.563037 ], [ 4.075098, 43.581836 ], [ 4.052637, 43.593066 ], [ 3.91084, 43.563086 ], [ 3.861621, 43.516357 ], [ 3.784766, 43.461621 ], [ 3.258887, 43.193213 ], [ 3.162891, 43.080762 ], [ 3.051758, 42.915137 ], [ 3.043066, 42.837891 ], [ 3.090918, 42.590869 ], [ 3.197852, 42.461182 ], [ 3.211426, 42.431152 ], [ 3.152148, 42.431006 ], [ 3.052637, 42.447217 ], [ 2.97002, 42.467236 ], [ 2.891406, 42.456055 ], [ 2.815625, 42.429248 ], [ 2.749414, 42.413037 ], [ 2.701855, 42.408496 ], [ 2.67002, 42.393018 ], [ 2.654785, 42.362109 ], [ 2.65166, 42.340479 ], [ 2.567969, 42.345801 ], [ 2.374414, 42.390283 ], [ 2.200391, 42.420947 ], [ 2.09834, 42.386084 ], [ 2.032715, 42.353516 ], [ 1.986523, 42.358496 ], [ 1.951465, 42.392773 ], [ 1.92793, 42.426318 ], [ 1.859766, 42.45708 ], [ 1.706055, 42.50332 ], [ 1.713965, 42.525635 ], [ 1.740234, 42.556738 ], [ 1.739453, 42.575928 ], [ 1.709863, 42.604443 ], [ 1.568164, 42.63501 ], [ 1.501367, 42.642725 ], [ 1.458887, 42.62168 ], [ 1.42832, 42.595898 ], [ 1.349414, 42.690674 ], [ 1.293262, 42.709961 ], [ 1.208301, 42.713135 ], [ 1.111133, 42.742041 ], [ 1.010059, 42.778955 ], [ 0.764453, 42.838037 ], [ 0.696875, 42.845117 ], [ 0.669824, 42.835742 ], [ 0.651758, 42.800439 ], [ 0.641992, 42.700635 ], [ 0.631641, 42.6896 ], [ 0.517676, 42.686279 ], [ 0.377246, 42.700146 ], [ 0.312891, 42.693262 ], [ 0.255469, 42.69292 ], [ 0.201367, 42.719336 ], [ -0.041162, 42.689111 ], [ -0.081494, 42.703857 ], [ -0.140039, 42.748926 ], [ -0.205322, 42.785303 ], [ -0.256055, 42.803955 ], [ -0.299316, 42.825342 ], [ -0.338574, 42.828809 ], [ -0.398438, 42.808105 ], [ -0.481152, 42.799316 ], [ -0.549805, 42.802002 ], [ -0.586426, 42.798975 ], [ -0.740186, 42.909521 ], [ -0.762646, 42.939795 ], [ -0.839209, 42.948193 ], [ -0.933838, 42.949512 ], [ -1.175439, 43.021143 ], [ -1.285449, 43.059619 ], [ -1.301562, 43.082471 ], [ -1.300049, 43.100977 ], [ -1.318848, 43.096973 ], [ -1.352734, 43.064258 ], [ -1.370508, 43.037598 ], [ -1.394043, 43.032617 ], [ -1.42876, 43.036768 ], [ -1.46084, 43.051758 ], [ -1.480469, 43.071143 ], [ -1.459424, 43.10498 ], [ -1.422607, 43.149121 ], [ -1.407324, 43.197119 ], [ -1.410693, 43.240088 ], [ -1.471729, 43.267676 ], [ -1.561475, 43.279199 ], [ -1.627148, 43.282471 ], [ -1.712842, 43.307031 ], [ -1.753271, 43.324707 ], [ -1.792725, 43.372559 ], [ -1.794043, 43.407324 ], [ -1.631445, 43.438037 ], [ -1.484863, 43.56377 ], [ -1.345996, 44.020215 ], [ -1.245508, 44.559863 ], [ -1.170801, 44.661816 ], [ -1.076953, 44.689844 ], [ -1.152881, 44.764014 ], [ -1.200391, 44.726465 ], [ -1.220312, 44.686621 ], [ -1.245215, 44.666699 ], [ -1.189062, 45.161475 ], [ -1.149072, 45.342627 ], [ -1.081006, 45.532422 ], [ -0.941748, 45.45708 ], [ -0.826318, 45.380664 ], [ -0.76665, 45.314355 ], [ -0.691113, 45.093457 ], [ -0.633984, 45.047119 ], [ -0.548486, 45.000586 ], [ -0.582275, 45.051367 ], [ -0.641113, 45.090186 ], [ -0.733105, 45.384619 ], [ -0.790771, 45.468018 ], [ -0.880664, 45.538184 ], [ -1.169971, 45.685937 ], [ -1.195996, 45.714453 ], [ -1.209961, 45.770898 ], [ -1.114355, 45.768506 ], [ -1.031738, 45.741064 ], [ -1.041504, 45.772656 ], [ -1.066016, 45.805664 ], [ -1.104395, 45.925342 ], [ -1.136377, 46.204834 ], [ -1.132031, 46.252686 ], [ -1.146289, 46.311377 ], [ -1.238818, 46.324512 ], [ -1.312793, 46.326904 ], [ -1.39248, 46.350098 ], [ -1.786523, 46.514844 ], [ -1.921436, 46.684814 ], [ -2.059375, 46.810303 ], [ -2.09248, 46.865039 ], [ -2.090283, 46.920508 ], [ -2.018896, 47.037646 ], [ -2.081934, 47.111621 ], [ -2.143555, 47.126318 ], [ -2.19707, 47.162939 ], [ -2.148584, 47.223926 ], [ -2.108301, 47.262939 ], [ -2.027588, 47.273584 ], [ -1.921729, 47.260645 ], [ -1.821289, 47.225342 ], [ -1.742529, 47.215967 ], [ -1.975391, 47.310693 ], [ -2.353027, 47.27876 ], [ -2.434424, 47.290967 ], [ -2.503125, 47.312061 ], [ -2.530029, 47.381592 ], [ -2.476318, 47.412939 ], [ -2.427686, 47.470898 ], [ -2.482715, 47.511621 ], [ -2.554053, 47.527051 ], [ -2.665918, 47.526172 ], [ -2.770312, 47.513867 ], [ -2.796777, 47.537256 ], [ -2.733105, 47.601807 ], [ -2.787207, 47.625537 ], [ -2.859375, 47.614453 ], [ -2.964062, 47.601074 ], [ -3.064209, 47.621338 ], [ -3.158838, 47.694678 ], [ -3.221582, 47.694141 ], [ -3.264697, 47.685107 ], [ -3.328613, 47.71333 ], [ -3.395898, 47.72041 ], [ -3.443945, 47.711035 ], [ -3.507812, 47.753125 ], [ -3.900928, 47.837549 ], [ -4.070703, 47.847852 ], [ -4.226416, 47.809619 ], [ -4.312109, 47.8229 ], [ -4.375098, 47.877441 ], [ -4.427979, 47.968945 ], [ -4.678809, 48.039502 ], [ -4.629199, 48.085791 ], [ -4.512402, 48.096729 ], [ -4.377832, 48.128809 ], [ -4.329443, 48.169971 ], [ -4.434619, 48.217969 ], [ -4.512207, 48.229736 ], [ -4.544336, 48.246973 ], [ -4.577148, 48.290039 ], [ -4.530664, 48.309717 ], [ -4.4979, 48.299268 ], [ -4.40332, 48.293066 ], [ -4.241406, 48.303662 ], [ -4.301758, 48.34707 ], [ -4.364404, 48.356738 ], [ -4.393164, 48.367627 ], [ -4.524805, 48.372314 ], [ -4.584717, 48.35752 ], [ -4.719385, 48.363135 ], [ -4.748535, 48.41001 ], [ -4.7625, 48.450244 ], [ -4.720752, 48.539893 ], [ -4.531201, 48.619971 ], [ -4.058887, 48.70752 ], [ -3.855664, 48.694727 ], [ -3.714795, 48.710498 ], [ -3.545996, 48.765674 ], [ -3.471484, 48.812939 ], [ -3.231445, 48.84082 ], [ -3.003223, 48.790674 ], [ -2.792871, 48.601074 ], [ -2.692334, 48.536816 ], [ -2.446191, 48.648291 ], [ -2.079443, 48.64502 ], [ -2.003711, 48.58208 ], [ -1.973145, 48.635107 ], [ -1.905713, 48.697119 ], [ -1.851953, 48.668848 ], [ -1.824707, 48.630518 ], [ -1.437646, 48.641406 ], [ -1.376465, 48.652588 ], [ -1.480469, 48.697607 ], [ -1.565479, 48.805518 ], [ -1.583105, 49.202393 ], [ -1.690332, 49.313184 ], [ -1.813428, 49.490137 ], [ -1.870068, 49.595117 ], [ -1.875391, 49.631396 ], [ -1.856445, 49.683789 ], [ -1.705127, 49.680957 ], [ -1.588232, 49.667676 ], [ -1.365723, 49.707275 ], [ -1.258643, 49.680176 ], [ -1.264941, 49.598242 ], [ -1.232275, 49.494873 ], [ -1.194971, 49.444824 ], [ -1.138525, 49.387891 ], [ -0.959131, 49.393164 ], [ -0.765527, 49.359717 ], [ -0.520898, 49.354541 ], [ -0.163477, 49.296777 ], [ -0.011182, 49.330225 ], [ 0.136133, 49.401514 ], [ 0.416895, 49.448389 ], [ 0.439258, 49.473193 ], [ 0.277637, 49.463281 ], [ 0.129395, 49.508447 ], [ 0.109375, 49.55752 ], [ 0.126563, 49.601562 ], [ 0.186719, 49.703027 ], [ 0.616211, 49.862939 ], [ 0.924121, 49.910205 ], [ 1.245508, 49.998242 ], [ 1.407227, 50.088525 ], [ 1.514063, 50.205078 ], [ 1.548438, 50.230713 ], [ 1.592773, 50.252197 ], [ 1.551563, 50.293945 ], [ 1.579492, 50.739258 ], [ 1.60957, 50.819482 ], [ 1.672266, 50.88501 ], [ 1.767676, 50.935693 ], [ 1.9125, 50.990625 ], [ 2.445703, 51.066504 ], [ 2.524902, 51.097119 ], [ 2.536035, 51.049512 ], [ 2.574805, 50.988574 ], [ 2.601465, 50.955273 ], [ 2.579297, 50.911768 ], [ 2.596777, 50.875928 ], [ 2.669141, 50.811426 ], [ 2.759375, 50.750635 ], [ 2.839746, 50.711768 ], [ 2.862402, 50.716016 ], [ 2.921973, 50.727051 ], [ 3.022852, 50.766895 ], [ 3.106836, 50.779443 ], [ 3.154883, 50.748926 ], [ 3.182031, 50.731689 ], [ 3.234961, 50.662939 ], [ 3.249805, 50.591162 ], [ 3.27334, 50.531543 ], [ 3.316211, 50.507373 ], [ 3.476953, 50.499463 ], [ 3.59541, 50.477344 ], [ 3.626758, 50.457324 ], [ 3.667285, 50.324805 ], [ 3.689355, 50.306055 ], [ 3.718848, 50.32168 ], [ 3.748047, 50.343506 ], [ 3.788574, 50.346973 ], [ 3.858105, 50.338574 ], [ 3.949707, 50.335938 ], [ 4.044141, 50.321338 ], [ 4.174609, 50.246484 ], [ 4.169629, 50.221777 ], [ 4.144141, 50.178418 ], [ 4.135254, 50.143799 ], [ 4.157715, 50.129883 ], [ 4.192188, 50.094141 ], [ 4.183887, 50.052832 ], [ 4.150293, 50.023877 ], [ 4.136816, 50.0 ], [ 4.137012, 49.984473 ], [ 4.149316, 49.971582 ], [ 4.176074, 49.960254 ], [ 4.36875, 49.944971 ], [ 4.54502, 49.960254 ], [ 4.656152, 50.002441 ], [ 4.675098, 50.046875 ], [ 4.706641, 50.09707 ], [ 4.772852, 50.139062 ], [ 4.818652, 50.153174 ], [ 4.860547, 50.135889 ], [ 4.790039, 49.95957 ], [ 4.841504, 49.914502 ], [ 4.849121, 49.847119 ], [ 4.867578, 49.788135 ], [ 4.930566, 49.789258 ], [ 5.006934, 49.778369 ], [ 5.061035, 49.756543 ], [ 5.124121, 49.721484 ], [ 5.215039, 49.689258 ], [ 5.278809, 49.67793 ], [ 5.301953, 49.650977 ], [ 5.353516, 49.619824 ], [ 5.434668, 49.554492 ], [ 5.507324, 49.510889 ], [ 5.542383, 49.511035 ], [ 5.610059, 49.528223 ], [ 5.710449, 49.539209 ], [ 5.789746, 49.538281 ], [ 5.823438, 49.505078 ], [ 5.901367, 49.489746 ], [ 5.928906, 49.477539 ], [ 5.959473, 49.454639 ], [ 6.011426, 49.445459 ], [ 6.074121, 49.454639 ], [ 6.119922, 49.485205 ], [ 6.181055, 49.498926 ], [ 6.242188, 49.494336 ], [ 6.277344, 49.477539 ], [ 6.344336, 49.452734 ], [ 6.382227, 49.458154 ], [ 6.458105, 49.442871 ], [ 6.534277, 49.394678 ], [ 6.566309, 49.346191 ], [ 6.574707, 49.319678 ], [ 6.607617, 49.290869 ], [ 6.735449, 49.160596 ], [ 6.77627, 49.15415 ], [ 6.820703, 49.173926 ], [ 6.849512, 49.201953 ], [ 6.891211, 49.20752 ], [ 6.958301, 49.194629 ], [ 7.001465, 49.179883 ], [ 7.022168, 49.123437 ], [ 7.036719, 49.112695 ], [ 7.065723, 49.124854 ], [ 7.117383, 49.127539 ], [ 7.199902, 49.113623 ], [ 7.313379, 49.129541 ], [ 7.404199, 49.153076 ], [ 7.450586, 49.152197 ], [ 7.525488, 49.086377 ], [ 7.610938, 49.061768 ], [ 7.799219, 49.041895 ], [ 8.00127, 49.010937 ], [ 8.080664, 48.985889 ], [ 8.134863, 48.973584 ], [ 8.140332, 48.886426 ], [ 8.124023, 48.873291 ], [ 7.922754, 48.698535 ], [ 7.837988, 48.636035 ], [ 7.794824, 48.546826 ], [ 7.765137, 48.41001 ], [ 7.705664, 48.280029 ], [ 7.616602, 48.156787 ], [ 7.58418, 48.064307 ], [ 7.608496, 48.002588 ], [ 7.593262, 47.905664 ], [ 7.538574, 47.773633 ], [ 7.529395, 47.673877 ], [ 7.56543, 47.606543 ], [ 7.615625, 47.592725 ], [ 7.494922, 47.547363 ] ] ], [ [ [ -1.213574, 45.816602 ], [ -1.280273, 45.897119 ], [ -1.368701, 45.967676 ], [ -1.388867, 46.032959 ], [ -1.388672, 46.050391 ], [ -1.285059, 46.002686 ], [ -1.17832, 45.904053 ], [ -1.213574, 45.816602 ] ] ] ] } },
{ "type": "Feature", "properties": { "name": "Czechia" }, "geometry": { "type": "Polygon", "coordinates": [ [ [ 13.98877, 48.692432 ], [ 13.924316, 48.728027 ], [ 13.843164, 48.759863 ], [ 13.814746, 48.766943 ], [ 13.769922, 48.815967 ], [ 13.684961, 48.876709 ], [ 13.547656, 48.959668 ], [ 13.440723, 48.955566 ], [ 13.401172, 48.977588 ], [ 13.383691, 49.008105 ], [ 13.339063, 49.060791 ], [ 13.28877, 49.097461 ], [ 13.227832, 49.11167 ], [ 13.140527, 49.15835 ], [ 13.02373, 49.260107 ], [ 12.916699, 49.330469 ], [ 12.813379, 49.329346 ], [ 12.747852, 49.366211 ], [ 12.681152, 49.414502 ], [ 12.632031, 49.46123 ], [ 12.555762, 49.574854 ], [ 12.500293, 49.639697 ], [ 12.457031, 49.679785 ], [ 12.408203, 49.713184 ], [ 12.390527, 49.739648 ], [ 12.450195, 49.800146 ], [ 12.471875, 49.830078 ], [ 12.497559, 49.853076 ], [ 12.5125, 49.877441 ], [ 12.512012, 49.895801 ], [ 12.457617, 49.955518 ], [ 12.38418, 49.998584 ], [ 12.276465, 50.042334 ], [ 12.207813, 50.09751 ], [ 12.18252, 50.148047 ], [ 12.175, 50.17583 ], [ 12.127832, 50.213428 ], [ 12.089746, 50.268555 ], [ 12.089844, 50.301758 ], [ 12.099219, 50.310986 ], [ 12.134863, 50.310937 ], [ 12.174805, 50.288379 ], [ 12.231152, 50.244873 ], [ 12.277344, 50.181445 ], [ 12.305664, 50.205713 ], [ 12.358594, 50.273242 ], [ 12.452637, 50.349805 ], [ 12.549023, 50.393408 ], [ 12.635547, 50.39707 ], [ 12.706445, 50.409131 ], [ 12.76543, 50.430957 ], [ 12.868262, 50.422217 ], [ 12.942676, 50.406445 ], [ 12.966797, 50.416211 ], [ 12.99707, 50.456055 ], [ 13.016406, 50.490381 ], [ 13.181152, 50.510498 ], [ 13.237695, 50.576758 ], [ 13.269531, 50.576416 ], [ 13.306055, 50.586328 ], [ 13.341016, 50.611426 ], [ 13.374609, 50.621729 ], [ 13.401172, 50.609326 ], [ 13.436133, 50.601074 ], [ 13.472559, 50.616943 ], [ 13.526563, 50.692822 ], [ 13.556738, 50.704639 ], [ 13.701367, 50.716504 ], [ 13.898535, 50.761279 ], [ 13.998438, 50.801123 ], [ 14.0, 50.801467609897394 ], [ 14.0, 48.675695762655131 ], [ 13.98877, 48.692432 ] ] ] } },
{ "type": "Feature", "properties": { "name": "Croatia" }, "geometry": { "type": "Polygon", "coordinates": [ [ [ 13.615234, 45.476758 ], [ 13.878711, 45.428369 ], [ 13.935645, 45.449805 ], [ 13.970117, 45.482617 ], [ 13.970313, 45.503369 ], [ 13.992773, 45.509424 ], [ 14.0, 45.506963015413803 ], [ 14.0, 44.876726333823449 ], [ 13.96582, 44.835645 ], [ 13.899805, 44.829346 ], [ 13.860742, 44.837402 ], [ 13.74248, 44.991504 ], [ 13.629297, 45.108203 ], [ 13.613477, 45.163428 ], [ 13.60332, 45.231396 ], [ 13.517188, 45.481787 ], [ 13.57793, 45.516895 ], [ 13.615234, 45.476758 ] ] ] } },
{ "type": "Feature", "properties": { "name": "Belgium" }, "geometry": { "type": "Polygon", "coordinates": [ [ [ 4.304492, 51.361523 ], [ 4.37373, 51.356006 ], [ 4.404004, 51.36709 ], [ 4.384766, 51.427588 ], [ 4.440918, 51.459814 ], [ 4.503418, 51.474707 ], [ 4.531641, 51.448584 ], [ 4.58877, 51.421924 ], [ 4.633984, 51.421729 ], [ 4.755664, 51.491113 ], [ 4.78418, 51.477393 ], [ 4.810547, 51.452734 ], [ 4.816016, 51.432812 ], [ 4.820703, 51.412061 ], [ 4.848047, 51.403271 ], [ 4.943945, 51.407764 ], [ 4.992578, 51.445361 ], [ 5.030957, 51.469092 ], [ 5.059473, 51.453125 ], [ 5.073438, 51.406836 ], [ 5.099902, 51.346484 ], [ 5.21416, 51.278955 ], [ 5.31084, 51.259717 ], [ 5.429785, 51.272998 ], [ 5.476855, 51.285059 ], [ 5.508789, 51.275 ], [ 5.54043, 51.239307 ], [ 5.608789, 51.198437 ], [ 5.752344, 51.169482 ], [ 5.796484, 51.153076 ], [ 5.827148, 51.125635 ], [ 5.818262, 51.086426 ], [ 5.749805, 50.98877 ], [ 5.74082, 50.959912 ], [ 5.75, 50.950244 ], [ 5.736621, 50.932129 ], [ 5.647559, 50.86665 ], [ 5.639453, 50.843604 ], [ 5.669141, 50.805957 ], [ 5.693555, 50.774756 ], [ 5.693652, 50.774658 ], [ 5.74707, 50.75957 ], [ 5.797363, 50.754541 ], [ 5.892461, 50.752557 ], [ 5.993945, 50.750439 ], [ 6.005957, 50.732227 ], [ 6.119434, 50.679248 ], [ 6.154492, 50.637256 ], [ 6.235938, 50.59668 ], [ 6.168457, 50.545361 ], [ 6.178711, 50.52251 ], [ 6.203027, 50.499121 ], [ 6.294922, 50.485498 ], [ 6.340918, 50.451758 ], [ 6.343652, 50.400244 ], [ 6.364453, 50.316162 ], [ 6.175098, 50.232666 ], [ 6.121289, 50.139355 ], [ 6.116504, 50.120996 ], [ 6.110059, 50.123779 ], [ 6.089063, 50.15459 ], [ 6.054785, 50.154297 ], [ 5.97627, 50.167187 ], [ 5.866895, 50.082812 ], [ 5.817383, 50.012695 ], [ 5.788086, 49.96123 ], [ 5.744043, 49.919629 ], [ 5.735254, 49.875635 ], [ 5.74082, 49.857178 ], [ 5.725781, 49.83335 ], [ 5.725, 49.808301 ], [ 5.787988, 49.758887 ], [ 5.803711, 49.732178 ], [ 5.880371, 49.644775 ], [ 5.856543, 49.612842 ], [ 5.837598, 49.57832 ], [ 5.81543, 49.553809 ], [ 5.789746, 49.538281 ], [ 5.710449, 49.539209 ], [ 5.610059, 49.528223 ], [ 5.542383, 49.511035 ], [ 5.507324, 49.510889 ], [ 5.434668, 49.554492 ], [ 5.353516, 49.619824 ], [ 5.301953, 49.650977 ], [ 5.278809, 49.67793 ], [ 5.215039, 49.689258 ], [ 5.124121, 49.721484 ], [ 5.061035, 49.756543 ], [ 5.006934, 49.778369 ], [ 4.930566, 49.789258 ], [ 4.867578, 49.788135 ], [ 4.849121, 49.847119 ], [ 4.841504, 49.914502 ], [ 4.790039, 49.95957 ], [ 4.860547, 50.135889 ], [ 4.818652, 50.153174 ], [ 4.772852, 50.139062 ], [ 4.706641, 50.09707 ], [ 4.675098, 50.046875 ], [ 4.656152, 50.002441 ], [ 4.54502, 49.960254 ], [ 4.36875, 49.944971 ], [ 4.176074, 49.960254 ], [ 4.149316, 49.971582 ], [ 4.137012, 49.984473 ], [ 4.136816, 50.0 ], [ 4.150293, 50.023877 ], [ 4.183887, 50.052832 ], [ 4.192188, 50.094141 ], [ 4.157715, 50.129883 ], [ 4.135254, 50.143799 ], [ 4.144141, 50.178418 ], [ 4.169629, 50.221777 ], [ 4.174609, 50.246484 ], [ 4.044141, 50.321338 ], [ 3.949707, 50.335938 ], [ 3.858105, 50.338574 ], [ 3.788574, 50.346973 ], [ 3.748047, 50.343506 ], [ 3.718848, 50.32168 ], [ 3.689355, 50.306055 ], [ 3.667285, 50.324805 ], [ 3.626758, 50.457324 ], [ 3.59541, 50.477344 ], [ 3.476953, 50.499463 ], [ 3.316211, 50.507373 ], [ 3.27334, 50.531543 ], [ 3.249805, 50.591162 ], [ 3.234961, 50.662939 ], [ 3.182031, 50.731689 ], [ 3.154883, 50.748926 ], [ 3.106836, 50.779443 ], [ 3.022852, 50.766895 ], [ 2.921973, 50.727051 ], [ 2.862402, 50.716016 ], [ 2.839746, 50.711768 ], [ 2.759375, 50.750635 ], [ 2.669141, 50.811426 ], [ 2.596777, 50.875928 ], [ 2.579297, 50.911768 ], [ 2.601465, 50.955273 ], [ 2.574805, 50.988574 ], [ 2.536035, 51.049512 ], [ 2.524902, 51.097119 ], [ 2.960156, 51.26543 ], [ 3.225195, 51.351611 ], [ 3.350098, 51.377686 ], [ 3.380078, 51.291113 ], [ 3.402832, 51.263623 ], [ 3.43252, 51.245752 ], [ 3.471973, 51.242236 ], [ 3.51709, 51.263623 ], [ 3.580273, 51.286182 ], [ 3.681836, 51.275684 ], [ 3.755664, 51.254834 ], [ 3.781934, 51.233203 ], [ 3.830762, 51.212598 ], [ 3.902051, 51.207666 ], [ 4.040039, 51.24707 ], [ 4.172559, 51.30708 ], [ 4.211426, 51.34873 ], [ 4.226172, 51.386475 ], [ 4.304492, 51.361523 ] ] ] } },
{ "type": "Feature", "properties": { "name": "Austria" }, "geometry": { "type": "Polygon", "coordinates": [ [ [ 9.609082, 47.391797 ], [ 9.625879, 47.467041 ], [ 9.554395, 47.511133 ], [ 9.524023, 47.524219 ], [ 9.548926, 47.534033 ], [ 9.650586, 47.525879 ], [ 9.715137, 47.550781 ], [ 9.748926, 47.575537 ], [ 9.83916, 47.552295 ], [ 9.971582, 47.505322 ], [ 10.034082, 47.473584 ], [ 10.059863, 47.449072 ], [ 10.074219, 47.428516 ], [ 10.066309, 47.393359 ], [ 10.096484, 47.37959 ], [ 10.158789, 47.374268 ], [ 10.200293, 47.363428 ], [ 10.185742, 47.317187 ], [ 10.183008, 47.278809 ], [ 10.240625, 47.284131 ], [ 10.312793, 47.313428 ], [ 10.369141, 47.366064 ], [ 10.403906, 47.416992 ], [ 10.430371, 47.541064 ], [ 10.439453, 47.551562 ], [ 10.482813, 47.541797 ], [ 10.658691, 47.547217 ], [ 10.741602, 47.524121 ], [ 10.873047, 47.520215 ], [ 10.870605, 47.500781 ], [ 10.893945, 47.470459 ], [ 10.952148, 47.426709 ], [ 10.980859, 47.398145 ], [ 11.041992, 47.393115 ], [ 11.136035, 47.408887 ], [ 11.191211, 47.425195 ], [ 11.211914, 47.413623 ], [ 11.297949, 47.424902 ], [ 11.374121, 47.460254 ], [ 11.392969, 47.487158 ], [ 11.469922, 47.506104 ], [ 11.573926, 47.549756 ], [ 11.716797, 47.583496 ], [ 12.185645, 47.619531 ], [ 12.203809, 47.646729 ], [ 12.196875, 47.709082 ], [ 12.209277, 47.718262 ], [ 12.268359, 47.702734 ], [ 12.363184, 47.688184 ], [ 12.435742, 47.666113 ], [ 12.48291, 47.637305 ], [ 12.526563, 47.636133 ], [ 12.594238, 47.656299 ], [ 12.68584, 47.669336 ], [ 12.771387, 47.639404 ], [ 12.796191, 47.607031 ], [ 12.781152, 47.59043 ], [ 12.782813, 47.56416 ], [ 12.809375, 47.542187 ], [ 12.878906, 47.506445 ], [ 12.968066, 47.475684 ], [ 13.014355, 47.478076 ], [ 13.031543, 47.508008 ], [ 13.047949, 47.57915 ], [ 13.054102, 47.655127 ], [ 13.033594, 47.69873 ], [ 12.985547, 47.709424 ], [ 12.928125, 47.712842 ], [ 12.897656, 47.721875 ], [ 12.908301, 47.745801 ], [ 12.954199, 47.807764 ], [ 12.953516, 47.890625 ], [ 12.849902, 47.984814 ], [ 12.760059, 48.075977 ], [ 12.760352, 48.106982 ], [ 12.814258, 48.16084 ], [ 12.897461, 48.203711 ], [ 13.082129, 48.275098 ], [ 13.14043, 48.289941 ], [ 13.215234, 48.301904 ], [ 13.322852, 48.33125 ], [ 13.374609, 48.361377 ], [ 13.409375, 48.394141 ], [ 13.459863, 48.564551 ], [ 13.47168, 48.571826 ], [ 13.486621, 48.581836 ], [ 13.675195, 48.523047 ], [ 13.692188, 48.532764 ], [ 13.723926, 48.542383 ], [ 13.785352, 48.587451 ], [ 13.798828, 48.62168 ], [ 13.797461, 48.686426 ], [ 13.80293, 48.74751 ], [ 13.814746, 48.766943 ], [ 13.843164, 48.759863 ], [ 13.924316, 48.728027 ], [ 13.98877, 48.692432 ], [ 14.0, 48.675695762655131 ], [ 14.0, 46.485639334893193 ], [ 13.928809, 46.498193 ], [ 13.831348, 46.51123 ], [ 13.743945, 46.514307 ], [ 13.7, 46.520264 ], [ 13.490039, 46.555566 ], [ 13.351562, 46.55791 ], [ 13.16875, 46.572656 ], [ 12.805566, 46.625879 ], [ 12.699805, 46.647461 ], [ 12.598633, 46.654102 ], [ 12.479199, 46.67251 ], [ 12.388281, 46.702637 ], [ 12.330078, 46.759814 ], [ 12.267969, 46.835889 ], [ 12.154102, 46.935254 ], [ 12.130762, 46.984766 ], [ 12.165527, 47.028174 ], [ 12.20127, 47.060889 ], [ 12.197168, 47.075 ], [ 12.169434, 47.082129 ], [ 11.969531, 47.039697 ], [ 11.775684, 46.986084 ], [ 11.699414, 46.984668 ], [ 11.625488, 46.996582 ], [ 11.527539, 46.997412 ], [ 11.433203, 46.983057 ], [ 11.244434, 46.975684 ], [ 11.133887, 46.936182 ], [ 11.063477, 46.859131 ], [ 11.025098, 46.796973 ], [ 10.993262, 46.777002 ], [ 10.927344, 46.769482 ], [ 10.828906, 46.775244 ], [ 10.759766, 46.793311 ], [ 10.689258, 46.846387 ], [ 10.579785, 46.853711 ], [ 10.479395, 46.855127 ], [ 10.452832, 46.864941 ], [ 10.45459, 46.899414 ], [ 10.414941, 46.964404 ], [ 10.349414, 46.984766 ], [ 10.179785, 46.862354 ], [ 10.133496, 46.851514 ], [ 9.996875, 46.885352 ], [ 9.877734, 46.937695 ], [ 9.864648, 46.975977 ], [ 9.845313, 47.007373 ], [ 9.74502, 47.037109 ], [ 9.619922, 47.057471 ], [ 9.580273, 47.057373 ], [ 9.595703, 47.07583 ], [ 9.610547, 47.107129 ], [ 9.601172, 47.13208 ], [ 9.571875, 47.15791 ], [ 9.555762, 47.185498 ], [ 9.551074, 47.212256 ], [ 9.542188, 47.234131 ], [ 9.536816, 47.254639 ], [ 9.527539, 47.270752 ], [ 9.609082, 47.391797 ] ] ] } },
{ "type": "Feature", "properties": { "name": "Andorra" }, "geometry": { "type": "Polygon", "coordinates": [ [ [ 1.678516, 42.49668 ], [ 1.586426, 42.455957 ], [ 1.534082, 42.441699 ], [ 1.48623, 42.434473 ], [ 1.448828, 42.437451 ], [ 1.428125, 42.461328 ], [ 1.430273, 42.497852 ], [ 1.421973, 42.530811 ], [ 1.414844, 42.548389 ], [ 1.42832, 42.595898 ], [ 1.458887, 42.62168 ], [ 1.501367, 42.642725 ], [ 1.568164, 42.63501 ], [ 1.709863, 42.604443 ], [ 1.739453, 42.575928 ], [ 1.740234, 42.556738 ], [ 1.713965, 42.525635 ], [ 1.706055, 42.50332 ], [ 1.678516, 42.49668 ] ] ] } },
{ "type": "Feature", "properties": { "name": "Algeria" }, "geometry": { "type": "Polygon", "coordinates": [ [ [ 8.597656, 36.883887 ], [ 8.60127, 36.833936 ], [ 8.506738, 36.7875 ], [ 8.444238, 36.760742 ], [ 8.369629, 36.63252 ], [ 8.230762, 36.545264 ], [ 8.207617, 36.518945 ], [ 8.208789, 36.495117 ], [ 8.302734, 36.455615 ], [ 8.333984, 36.418164 ], [ 8.34873, 36.367969 ], [ 8.306738, 36.18877 ], [ 8.280273, 36.050977 ], [ 8.245703, 35.870557 ], [ 8.24707, 35.801807 ], [ 8.28291, 35.719287 ], [ 8.318066, 35.654932 ], [ 8.329004, 35.582227 ], [ 8.316406, 35.403125 ], [ 8.359863, 35.299609 ], [ 8.394238, 35.203857 ], [ 8.312109, 35.084619 ], [ 8.276855, 34.979492 ], [ 8.254688, 34.828955 ], [ 8.245605, 34.734082 ], [ 8.192773, 34.646289 ], [ 8.123438, 34.563916 ], [ 8.045605, 34.512695 ], [ 7.949414, 34.468701 ], [ 7.838281, 34.410303 ], [ 7.748535, 34.254492 ], [ 7.554492, 34.125 ], [ 7.513867, 34.080518 ], [ 7.495605, 33.976514 ], [ 7.500195, 33.832471 ], [ 7.534375, 33.71792 ], [ 7.627539, 33.548633 ], [ 7.70918, 33.362305 ], [ 7.731348, 33.268506 ], [ 7.762695, 33.233105 ], [ 7.877246, 33.172119 ], [ 8.075586, 33.089062 ], [ 8.1125, 33.055322 ], [ 8.154842430671861, 33.0 ], [ -1.535439662541402, 33.0 ], [ -1.550732, 33.073584 ], [ -1.625098, 33.18335 ], [ -1.679199, 33.318652 ], [ -1.63125, 33.566748 ], [ -1.702979, 33.716846 ], [ -1.714111, 33.781836 ], [ -1.714697, 33.858203 ], [ -1.692676, 33.990283 ], [ -1.706934, 34.176074 ], [ -1.791797, 34.36792 ], [ -1.751855, 34.433252 ], [ -1.733301, 34.467041 ], [ -1.739453, 34.496094 ], [ -1.816602, 34.55708 ], [ -1.849658, 34.607324 ], [ -1.832422, 34.654639 ], [ -1.792187, 34.723193 ], [ -1.795605, 34.751904 ], [ -1.920898, 34.835547 ], [ -2.131787, 34.97085 ], [ -2.190771, 35.029785 ], [ -2.219629, 35.104199 ], [ -2.017773, 35.085059 ], [ -1.913281, 35.094238 ], [ -1.673633, 35.183105 ], [ -1.48374, 35.303076 ], [ -1.33584, 35.364258 ], [ -1.205371, 35.495752 ], [ -1.087695, 35.578857 ], [ -0.91748, 35.668408 ], [ -0.426123, 35.861523 ], [ -0.350781, 35.863184 ], [ -0.18916, 35.819092 ], [ -0.048242, 35.832812 ], [ 0.047949, 35.900537 ], [ 0.15166, 36.063135 ], [ 0.312207, 36.162354 ], [ 0.514941, 36.261816 ], [ 0.79082, 36.356543 ], [ 0.97168, 36.443945 ], [ 1.257227, 36.51958 ], [ 1.974512, 36.567578 ], [ 2.342871, 36.610303 ], [ 2.593359, 36.600684 ], [ 2.846484, 36.738867 ], [ 2.972852, 36.784473 ], [ 3.520508, 36.795117 ], [ 3.779004, 36.896191 ], [ 4.758105, 36.896338 ], [ 4.877832, 36.862402 ], [ 4.99541, 36.808057 ], [ 5.195605, 36.676807 ], [ 5.29541, 36.648242 ], [ 5.424609, 36.675439 ], [ 5.725488, 36.799609 ], [ 6.064746, 36.864258 ], [ 6.249121, 36.93833 ], [ 6.327832, 37.046045 ], [ 6.486523, 37.085742 ], [ 6.575879, 37.003027 ], [ 6.927539, 36.919434 ], [ 7.143457, 36.943359 ], [ 7.238477, 36.968506 ], [ 7.204297, 37.092383 ], [ 7.432422, 37.059277 ], [ 7.607715, 36.999756 ], [ 7.791602, 36.880273 ], [ 7.910449, 36.856348 ], [ 8.127148, 36.910352 ], [ 8.576563, 36.937207 ], [ 8.597656, 36.883887 ] ] ] } }
]
}
